{
  "type": "FeatureCollection",
  "features": [
    {
      "type": "Feature",
      "properties": {"name": "Gibraltar - Ascension - Falklands", "stroke": "#ff0000", "stroke-width": 2},
      "geometry": {
        "type": "LineString",
        "coordinates": [
          [-5.35, 36.14],
          [-9.5, 33.5],
          [-13.0, 30.5],
          [-16.0, 27.5],
          [-18.5, 24.0],
          [-20.5, 20.5],
          [-22.0, 17.0],
          [-22.5, 13.5],
          [-22.0, 10.0],
          [-20.5, 6.5],
          [-18.5, 3.0],
          [-16.5, -1.0],
          [-14.36, -7.95],
          [-16.0, -11.0],
          [-18.0, -14.0],
          [-20.5, -17.0],
          [-23.5, -20.0],
          [-27.0, -23.0],
          [-30.5, -26.0],
          [-34.0, -29.0],
          [-37.5, -32.0],
          [-41.0, -35.0],
          [-44.5, -38.0],
          [-48.0, -41.0],
          [-51.0, -44.0],
          [-53.5, -46.5],
          [-55.5, -48.5],
          [-57.0, -50.5],
          [-57.85, -51.7],
          [-57.5, -52.0],
          [-57.4, -52.3],
          [-57.38, -52.57],
          [-57.3, -52.65],
          [-57.2, -52.75],
          [-57.15, -52.82],
          [-57.1, -52.9],
          [-57.02, -52.98],
          [-56.933, -53.067]
        ]
      }
    }
  ]
}
