{
  "type": "FeatureCollection",
  "features": [
    {
      "type": "Feature",
      "properties": {"name": "Magellan and Elcano: first circumnavigation (1519–1522)", "legend": "Magellan and Elcano, 1519–1522", "stroke": "#ffffff", "stroke-width": 2.5},
      "geometry": {
        "type": "LineString",
        "coordinates": [
          [-6.35, 36.78], [-6.6, 36.6], [-15.97, 28.3], [-18.0, 20.0], [-18.5, 15.0], [-14.0, 7.0],
          [-25.0, 0.0], [-34.6, -8.0], [-38.0, -18.5], [-41.8, -23.2], [-43.15, -22.95], [-43.0, -23.2],
          [-48.0, -28.0], [-53.0, -34.5], [-55.5, -35.2], [-57.0, -38.5], [-62.5, -42.5], [-65.5, -45.5],
          [-65.0, -47.5], [-67.5, -49.3], [-68.2, -52.4], [-69.5, -52.5], [-70.4, -52.8], [-70.85, -53.3],
          [-71.3, -54.0], [-72.3, -53.6], [-73.3, -53.0], [-74.6, -52.7], [-76.0, -52.0], [-80.0, -32.0],
          [-110.0, -20.0], [-138.6, -14.8], [-160.0, -5.0], [-179.0, 10.0], [175.0, 12.0], [144.7, 13.45],
          [125.7, 10.7], [124.0, 10.3], [121.0, 8.5], [114.8, 5.1], [122.0, 4.0], [127.4, 0.68],
          [126.0, -5.0], [124.5, -9.0], [123.0, -11.0], [100.0, -30.0], [60.0, -40.0], [20.0, -36.5],
          [12.0, -25.0], [-5.0, -5.0], [-23.4, 14.95], [-20.0, 30.0], [-9.2, 36.9], [-6.6, 36.6],
          [-6.35, 36.78]
        ]
      }
    },
    {
      "type": "Feature",
      "properties": {"name": "Gaspar Corte-Real to Greenland and Newfoundland (1500–1501)", "legend": "Gaspar Corte-Real, 1500–1501", "stroke": "#8fd3ff", "stroke-width": 2.5},
      "geometry": {
        "type": "LineString",
        "coordinates": [
          [-9.14, 38.71], [-9.6, 38.5], [-27.0, 38.65], [-43.5, 59.3], [-52.0, 54.0], [-52.4, 47.6]
        ]
      }
    },
    {
      "type": "Feature",
      "properties": {"name": "Pêro da Covilhã's overland mission to India and Ethiopia (1487–1494)", "legend": "Pêro da Covilhã (overland), 1487–1494", "stroke": "#ff9f1c", "stroke-width": 2.5},
      "geometry": {
        "type": "MultiLineString",
        "coordinates": [
          [
            [-9.14, 38.71], [-0.38, 39.47], [2.17, 41.37], [4.0, 41.0], [9.25, 41.35], [12.5, 40.8],
            [14.1, 40.75], [14.25, 40.84], [15.63, 38.25], [15.55, 38.0], [15.8, 37.85], [22.5, 36.2],
            [25.0, 36.0], [27.5, 36.2], [28.1, 36.5], [28.22, 36.45], [29.9, 31.2], [31.24, 30.04],
            [32.55, 29.97], [33.0, 29.0], [33.5, 28.0], [35.5, 25.0], [38.5, 20.0], [41.0, 15.0],
            [43.4, 12.6], [45.0, 12.75], [75.2, 11.87], [75.6, 11.25], [74.5, 12.9], [73.75, 15.45]
          ],
          [
            [45.0, 12.75], [43.47, 11.35], [42.12, 9.31], [39.5, 9.7]
          ]
        ]
      }
    },
    {
      "type": "Feature",
      "properties": {"name": "Pedro Álvares Cabral: Brazil and India (1500–1501)", "legend": "Pedro Álvares Cabral, 1500–1501", "stroke": "#2ee59d", "stroke-width": 2.5},
      "geometry": {
        "type": "LineString",
        "coordinates": [
          [-9.14, 38.71], [-9.6, 38.5], [-15.97, 28.3], [-24.0, 16.9], [-30.0, 0.0], [-38.9, -16.45],
          [-30.0, -25.0], [-10.0, -36.0], [10.0, -38.0], [20.0, -37.0], [30.0, -33.0], [34.5, -26.0],
          [35.8, -24.5], [36.0, -22.0], [35.2, -20.2], [37.4, -18.0], [39.5, -17.3], [40.6, -16.2],
          [40.9, -15.05], [41.0, -12.0], [40.9, -10.5], [39.75, -8.95], [40.2, -5.5], [39.8, -4.1],
          [40.25, -3.2], [73.9, 14.75], [74.4, 13.0], [75.6, 11.25]
        ]
      }
    },
    {
      "type": "Feature",
      "properties": {"name": "Vasco da Gama: sea route to India (1497–1499)", "legend": "Vasco da Gama, 1497–1499", "stroke": "#ff3b30", "stroke-width": 2.5},
      "geometry": {
        "type": "LineString",
        "coordinates": [
          [-9.14, 38.71], [-9.6, 38.5], [-15.97, 28.3], [-22.5, 16.5], [-22.95, 15.0], [-23.4, 14.9],
          [-20.0, 5.0], [-28.0, -10.0], [-30.0, -20.0], [-25.0, -30.0], [-10.0, -35.0], [5.0, -34.0],
          [17.95, -32.72], [17.8, -33.8], [18.3, -34.6], [20.0, -35.0], [22.15, -34.2], [24.0, -34.3],
          [25.8, -34.2], [28.0, -33.3], [31.5, -29.9], [35.8, -24.5], [37.4, -18.0], [39.5, -17.3],
          [40.6, -16.2], [40.9, -15.05], [41.0, -12.0], [40.9, -10.5], [40.0, -8.5], [40.2, -5.5],
          [39.8, -4.1], [40.25, -3.2], [75.6, 11.25]
        ]
      }
    },
    {
      "type": "Feature",
      "properties": {"name": "Bartolomeu Dias rounds the Cape of Good Hope (1487–1488)", "legend": "Bartolomeu Dias, 1487–1488", "stroke": "#ff4fd8", "stroke-width": 2.5},
      "geometry": {
        "type": "MultiLineString",
        "coordinates": [
          [
            [-9.14, 38.71], [-9.6, 38.5], [-9.2, 36.9], [-13.4, 28.0], [-14.8, 26.1], [-16.5, 23.5],
            [-17.3, 20.7], [-17.0, 18.0], [-16.8, 16.0], [-17.65, 14.75], [-17.3, 13.0], [-16.9, 11.5],
            [-13.4, 8.5], [-13.6, 7.5], [-7.7, 4.1], [-2.1, 4.5], [-1.35, 4.9], [3.0, 5.5],
            [6.5, 3.5], [8.5, 1.5], [8.5, -1.0], [11.0, -4.5], [12.2, -6.05], [12.6, -9.0],
            [12.3, -13.4], [11.6, -15.2], [11.5, -17.0], [12.0, -19.0], [13.7, -21.8], [14.2, -24.0],
            [14.9, -26.6], [15.5, -33.0], [17.0, -38.0], [22.0, -36.0], [22.15, -34.2], [24.0, -34.3],
            [25.7, -34.1], [26.62, -33.72]
          ],
          [
            [26.62, -33.72], [25.8, -34.2], [24.0, -34.35], [20.0, -35.0], [18.4, -34.5], [17.6, -33.0]
          ]
        ]
      }
    },
    {
      "type": "Feature",
      "properties": {"name": "Diogo Cão: Congo and Namibia (1482–1486)", "legend": "Diogo Cão, 1482–1486", "stroke": "#4cc9f0", "stroke-width": 2.5},
      "geometry": {
        "type": "LineString",
        "coordinates": [
          [-9.14, 38.71], [-9.6, 38.5], [-9.2, 36.9], [-13.4, 28.0], [-14.8, 26.1], [-16.5, 23.5],
          [-17.3, 20.7], [-17.0, 18.0], [-16.8, 16.0], [-17.65, 14.75], [-17.3, 13.0], [-16.9, 11.5],
          [-13.4, 8.5], [-13.6, 7.5], [-7.7, 4.1], [-2.1, 4.5], [-1.35, 4.9], [3.0, 5.5],
          [6.5, 3.5], [8.5, 1.5], [8.5, -1.0], [11.0, -4.5], [12.2, -6.05], [12.6, -9.0],
          [12.3, -13.4], [11.6, -15.2], [11.5, -17.0], [12.0, -19.0], [13.7, -21.8]
        ]
      }
    },
    {
      "type": "Feature",
      "properties": {"name": "Voyages sent by Henry the Navigator (1415–1460)", "legend": "Henry the Navigator's captains, 1415–1460", "stroke": "#ffd60a", "stroke-width": 2.5},
      "geometry": {
        "type": "MultiLineString",
        "coordinates": [
          [
            [-9.14, 38.71], [-9.6, 38.5], [-9.2, 36.9], [-6.5, 36.0], [-5.6, 35.95], [-5.31, 35.89]
          ],
          [
            [-8.67, 37.08], [-9.0, 36.85], [-16.25, 33.05], [-16.6, 32.6], [-16.91, 32.63]
          ],
          [
            [-8.67, 37.08], [-9.0, 36.85], [-25.0, 36.95], [-25.67, 37.73]
          ],
          [
            [-8.67, 37.08], [-9.0, 36.85], [-13.4, 28.0], [-14.8, 26.1], [-16.5, 23.5], [-17.3, 20.7],
            [-17.0, 18.0], [-16.8, 16.0], [-17.65, 14.75], [-17.3, 13.0], [-16.9, 11.5], [-13.4, 8.5]
          ],
          [
            [-17.65, 14.75], [-23.4, 15.0]
          ]
        ]
      }
    }
  ]
}
