{
  "type": "FeatureCollection",
  "features": [
    {"type": "Feature", "properties": {"name": "Danes: Jutland to the Danevirke, the islands, Scania, Halland and Blekinge", "legend": "Viking homelands", "stroke": "#6b4f3a", "stroke-width": 0.8, "fill": "#6b4f3a", "fill-opacity": 0.3}, "geometry": {"type": "MultiPolygon", "coordinates": [[[[8.88, 54.53], [8.96, 54.52], [8.89, 54.47], [8.82, 54.47], [8.82, 54.5], [8.88, 54.53]]], [[[8.33, 54.69], [8.4, 54.63], [8.35, 54.62], [8.29, 54.67], [8.32, 54.7], [8.36, 54.71], [8.33, 54.69]]], [[[8.46, 54.75], [8.59, 54.73], [8.55, 54.69], [8.39, 54.71], [8.46, 54.75]]], [[[11.01, 54.77], [11.01, 54.8], [11.11, 54.83], [11.02, 54.9], [11.07, 54.95], [11.23, 54.96], [11.37, 54.88], [11.59, 54.81], [11.57, 54.85], [11.66, 54.87], [11.65, 54.91], [11.79, 54.83], [11.77, 54.82], [11.81, 54.8], [11.86, 54.75], [11.81, 54.71], [11.84, 54.68], [11.77, 54.65], [11.61, 54.67], [11.47, 54.63], [11.01, 54.77]]], [[[10.35, 54.9], [10.39, 54.9], [10.39, 54.92], [10.43, 54.87], [10.46, 54.87], [10.45, 54.9], [10.52, 54.85], [10.38, 54.83], [10.2, 54.97], [10.35, 54.9]]], [[[8.3, 54.86], [8.28, 54.74], [8.29, 54.89], [8.37, 55.03], [8.39, 55.04], [8.43, 55.03], [8.36, 54.99], [8.35, 54.91], [8.44, 54.89], [8.65, 54.89], [8.3, 54.86]]], [[[10.6, 54.84], [10.72, 54.89], [10.68, 54.91], [10.7, 54.93], [10.96, 55.15], [10.73, 54.74], [10.68, 54.74], [10.6, 54.84]]], [[[9.94, 54.9], [9.78, 54.92], [9.76, 54.98], [9.85, 54.95], [9.8, 55.02], [9.67, 55.02], [9.7, 55.05], [9.63, 55.06], [9.79, 55.08], [9.99, 55.0], [10.07, 54.89], [9.99, 54.87], [9.94, 54.9]]], [[[10.07, 55.09], [10.16, 55.14], [10.09, 55.19], [10.0, 55.2], [10.03, 55.13], [9.99, 55.13], [9.98, 55.21], [9.88, 55.25], [9.88, 55.35], [9.8, 55.36], [9.78, 55.38], [9.84, 55.4], [9.7, 55.47], [9.81, 55.44], [9.68, 55.5], [9.76, 55.54], [9.83, 55.55], [9.89, 55.51], [10.24, 55.61], [10.29, 55.59], [10.31, 55.62], [10.52, 55.53], [10.48, 55.53], [10.49, 55.49], [10.42, 55.46], [10.47, 55.44], [10.61, 55.49], [10.57, 55.53], [10.61, 55.53], [10.61, 55.61], [10.66, 55.59], [10.74, 55.49], [10.57, 55.46], [10.55, 55.44], [10.68, 55.45], [10.8, 55.36], [10.83, 55.29], [10.77, 55.29], [10.82, 55.21], [10.79, 55.13], [10.72, 55.06], [10.54, 55.03], [10.07, 55.09]]], [[[8.48, 55.35], [8.4, 55.38], [8.37, 55.46], [8.46, 55.43], [8.48, 55.35]]], [[[10.63, 55.92], [10.64, 55.87], [10.67, 55.88], [10.58, 55.76], [10.52, 55.79], [10.51, 55.83], [10.58, 55.89], [10.52, 55.95], [10.53, 55.99], [10.56, 56.0], [10.58, 55.94], [10.63, 55.92]]], [[[8.55, 56.79], [8.67, 56.83], [8.62, 56.83], [8.65, 56.89], [8.81, 56.91], [8.93, 56.98], [8.9, 56.87], [8.87, 56.89], [8.84, 56.87], [8.88, 56.81], [8.77, 56.7], [8.66, 56.68], [8.52, 56.75], [8.55, 56.79]]], [[[11.0, 57.2], [10.85, 57.27], [11.03, 57.32], [11.19, 57.33], [11.19, 57.29], [11.07, 57.29], [11.09, 57.25], [11.0, 57.2]]], [[[12.12, 54.91], [12.15, 54.94], [12.13, 54.95], [12.18, 54.99], [12.29, 54.99], [12.26, 55.06], [12.5, 55.02], [12.55, 54.97], [12.35, 54.96], [12.18, 54.89], [12.12, 54.91]]], [[[14.98, 55.0], [14.68, 55.1], [14.71, 55.24], [14.76, 55.31], [15.15, 55.13], [15.1, 55.01], [14.98, 55.0]]], [[[11.95, 54.57], [11.87, 54.66], [11.91, 54.72], [11.88, 54.73], [11.88, 54.76], [11.81, 54.8], [11.79, 54.83], [11.71, 54.94], [11.88, 54.98], [11.84, 55.03], [11.62, 55.09], [11.83, 55.05], [11.72, 55.13], [11.81, 55.15], [11.73, 55.15], [11.72, 55.21], [11.65, 55.18], [11.42, 55.22], [11.26, 55.2], [11.24, 55.24], [11.27, 55.24], [11.29, 55.26], [11.24, 55.25], [11.24, 55.28], [11.15, 55.33], [11.19, 55.35], [11.11, 55.33], [11.09, 55.36], [11.21, 55.4], [11.16, 55.5], [11.08, 55.51], [11.15, 55.58], [11.09, 55.63], [10.93, 55.67], [11.09, 55.66], [10.88, 55.74], [11.16, 55.75], [11.12, 55.74], [11.19, 55.7], [11.22, 55.71], [11.19, 55.74], [11.36, 55.77], [11.38, 55.81], [11.35, 55.84], [11.48, 55.84], [11.51, 55.87], [11.48, 55.94], [11.3, 55.97], [11.27, 56.0], [11.6, 55.94], [11.77, 55.97], [11.74, 55.9], [11.66, 55.91], [11.73, 55.83], [11.72, 55.81], [11.61, 55.78], [11.74, 55.8], [11.76, 55.75], [11.66, 55.73], [11.75, 55.73], [11.79, 55.69], [11.78, 55.66], [11.86, 55.73], [11.87, 55.8], [11.95, 55.85], [11.91, 55.92], [11.93, 55.93], [12.0, 55.9], [12.05, 55.74], [11.97, 55.72], [11.91, 55.66], [12.0, 55.7], [12.06, 55.65], [12.1, 55.73], [12.03, 55.94], [11.87, 55.94], [11.87, 55.97], [12.25, 56.13], [12.49, 56.1], [12.62, 56.04], [12.51, 55.93], [12.6, 55.8], [12.6, 55.71], [12.49, 55.61], [12.33, 55.6], [12.2, 55.49], [12.22, 55.43], [12.43, 55.36], [12.47, 55.29], [12.18, 55.23], [12.1, 55.14], [12.17, 55.13], [12.17, 55.1], [12.12, 55.07], [12.16, 55.02], [12.15, 54.99], [12.03, 54.97], [11.9, 55.0], [11.89, 54.93], [11.96, 54.95], [12.17, 54.84], [11.98, 54.71], [11.95, 54.57]]], [[[12.61, 55.7], [12.67, 55.6], [12.56, 55.55], [12.52, 55.62], [12.61, 55.7]]], [[[8.6, 54.31], [8.61, 54.35], [8.7, 54.36], [8.63, 54.37], [8.65, 54.41], [8.89, 54.42], [9.01, 54.48], [8.89, 54.6], [8.83, 54.6], [8.85, 54.62], [8.81, 54.69], [8.69, 54.74], [8.64, 54.84], [8.67, 54.95], [8.64, 55.06], [8.68, 55.13], [8.56, 55.14], [8.56, 55.1], [8.5, 55.07], [8.46, 55.1], [8.49, 55.2], [8.59, 55.18], [8.56, 55.15], [8.69, 55.14], [8.63, 55.42], [8.59, 55.45], [8.44, 55.46], [8.31, 55.56], [8.33, 55.58], [8.24, 55.56], [8.27, 55.53], [8.24, 55.52], [8.31, 55.47], [8.1, 55.55], [8.18, 55.73], [8.13, 55.99], [8.11, 56.01], [8.13, 56.59], [8.21, 56.71], [8.23, 56.69], [8.2, 56.64], [8.31, 56.6], [8.3, 56.56], [8.39, 56.59], [8.51, 56.54], [8.57, 56.58], [8.64, 56.48], [8.73, 56.48], [8.76, 56.56], [8.68, 56.63], [8.74, 56.63], [8.81, 56.7], [8.92, 56.71], [8.84, 56.72], [8.96, 56.8], [9.06, 56.81], [9.18, 56.71], [9.06, 56.63], [9.06, 56.57], [9.16, 56.61], [9.12, 56.62], [9.16, 56.66], [9.15, 56.64], [9.28, 56.63], [9.25, 56.58], [9.32, 56.53], [9.36, 56.54], [9.35, 56.57], [9.29, 56.56], [9.33, 56.67], [9.31, 56.7], [9.17, 56.69], [9.24, 56.75], [9.17, 56.81], [9.21, 56.86], [9.16, 56.89], [9.2, 56.94], [9.29, 57.0], [9.44, 57.02], [9.61, 56.97], [9.69, 57.04], [9.92, 57.06], [9.8, 57.11], [9.71, 57.06], [9.68, 57.08], [9.25, 57.0], [9.11, 57.06], [9.04, 57.02], [8.68, 56.95], [8.61, 56.85], [8.49, 56.79], [8.48, 56.72], [8.53, 56.7], [8.41, 56.69], [8.59, 56.69], [8.61, 56.63], [8.56, 56.59], [8.35, 56.69], [8.3, 56.76], [8.24, 56.78], [8.27, 56.84], [8.62, 57.12], [8.78, 57.1], [8.98, 57.16], [9.23, 57.14], [9.41, 57.17], [9.57, 57.24], [9.97, 57.59], [10.2, 57.6], [10.54, 57.74], [10.65, 57.74], [10.54, 57.7], [10.43, 57.57], [10.55, 57.44], [10.52, 57.39], [10.54, 57.24], [10.41, 57.14], [10.35, 57.01], [10.24, 56.99], [10.31, 56.98], [10.27, 56.91], [10.34, 56.72], [10.15, 56.72], [9.81, 56.64], [10.1, 56.68], [10.15, 56.71], [10.24, 56.69], [10.33, 56.7], [10.34, 56.62], [10.21, 56.56], [10.18, 56.47], [10.23, 56.48], [10.24, 56.55], [10.33, 56.6], [10.37, 56.56], [10.47, 56.52], [10.82, 56.53], [10.96, 56.44], [10.91, 56.33], [10.76, 56.23], [10.74, 56.15], [10.67, 56.17], [10.65, 56.19], [10.69, 56.22], [10.63, 56.24], [10.55, 56.18], [10.57, 56.11], [10.52, 56.1], [10.49, 56.14], [10.53, 56.15], [10.51, 56.17], [10.41, 56.16], [10.35, 56.2], [10.49, 56.22], [10.48, 56.24], [10.5, 56.28], [10.44, 56.3], [10.26, 56.19], [10.22, 56.15], [10.27, 56.07], [10.23, 56.02], [10.28, 56.02], [10.18, 55.83], [10.1, 55.88], [9.87, 55.85], [10.05, 55.81], [10.02, 55.77], [10.06, 55.75], [10.01, 55.7], [9.79, 55.67], [9.56, 55.72], [9.66, 55.69], [9.74, 55.63], [9.85, 55.63], [9.71, 55.54], [9.5, 55.49], [9.66, 55.48], [9.65, 55.44], [9.59, 55.43], [9.6, 55.37], [9.71, 55.25], [9.68, 55.2], [9.49, 55.16], [9.51, 55.13], [9.46, 55.13], [9.56, 55.09], [9.43, 55.04], [9.58, 55.05], [9.67, 55.02], [9.72, 55.0], [9.76, 54.9], [9.7, 54.89], [9.74, 54.87], [9.73, 54.83], [9.62, 54.87], [9.61, 54.9], [9.64, 54.92], [9.59, 54.93], [9.44, 54.81], [9.58, 54.87], [9.58, 54.83], [9.73, 54.81], [9.82, 54.76], [9.9, 54.77], [9.89, 54.79], [9.95, 54.78], [10.02, 54.7], [9.93, 54.67], [10.04, 54.67], [10.03, 54.56], [9.97, 54.51], [9.84, 54.48], [10.14, 54.49], [10.2, 54.46], [10.19, 54.4], [9.9, 54.3], [8.6, 54.31]]], [[[15.85, 56.09], [15.79, 56.11], [15.83, 56.16], [15.73, 56.16], [15.65, 56.19], [15.59, 56.16], [15.59, 56.21], [15.48, 56.15], [15.4, 56.18], [15.39, 56.16], [15.37, 56.14], [15.32, 56.15], [15.3, 56.19], [15.19, 56.15], [15.09, 56.16], [15.08, 56.19], [15.03, 56.18], [15.05, 56.15], [14.7, 56.16], [14.68, 56.12], [14.77, 56.03], [14.72, 56.0], [14.61, 56.01], [14.6, 56.06], [14.5, 56.04], [14.23, 55.86], [14.2, 55.73], [14.37, 55.55], [14.18, 55.39], [13.9, 55.43], [13.63, 55.42], [13.38, 55.35], [12.98, 55.4], [12.83, 55.38], [12.86, 55.43], [12.93, 55.42], [12.99, 55.45], [12.92, 55.55], [13.04, 55.64], [13.05, 55.69], [12.92, 55.75], [12.93, 55.83], [12.82, 55.89], [12.75, 56.0], [12.45, 56.3], [12.7, 56.22], [12.81, 56.24], [12.83, 56.28], [12.62, 56.42], [12.71, 56.47], [12.89, 56.46], [12.93, 56.55], [12.87, 56.65], [12.73, 56.65], [12.62, 56.75], [12.6, 56.82], [12.36, 56.92], [12.34, 57.01], [12.22, 57.09], [12.24, 57.11], [12.2, 57.18], [12.15, 57.19], [12.19, 57.21], [12.1, 57.24], [12.16, 57.24], [12.1, 57.25], [12.14, 57.31], [12.05, 57.35], [12.11, 57.39], [12.06, 57.39], [12.09, 57.41], [12.06, 57.46], [12.01, 57.43], [11.98, 57.35], [11.9, 57.39], [11.91, 57.47], [11.94, 57.49], [11.9, 57.52], [11.91, 57.6], [12.0, 57.6], [12.6, 57.4], [13.3, 57.0], [13.5, 56.5], [14.2, 56.45], [15.0, 56.55], [15.9, 56.45], [15.99, 56.21], [15.85, 56.09]]]]}},
    {"type": "Feature", "properties": {"name": "Norwegians: Viken to H\u00e5logaland", "legend": "Viking homelands", "stroke": "#6b4f3a", "stroke-width": 0.8, "fill": "#6b4f3a", "fill-opacity": 0.3}, "geometry": {"type": "MultiPolygon", "coordinates": [[[[11.53, 57.95], [11.52, 58.0], [11.57, 58.0], [11.51, 58.01], [11.51, 58.05], [11.74, 58.06], [11.73, 58.0], [11.7, 58.02], [11.65, 57.96], [11.53, 57.95]]], [[[11.46, 58.11], [11.46, 58.07], [11.41, 58.15], [11.53, 58.21], [11.66, 58.24], [11.69, 58.29], [11.81, 58.23], [11.8, 58.13], [11.46, 58.11]]], [[[6.0, 59.23], [5.93, 59.24], [5.99, 59.29], [6.09, 59.26], [6.0, 59.23]]], [[[5.18, 59.29], [5.23, 59.29], [5.17, 59.33], [5.21, 59.37], [5.19, 59.41], [5.21, 59.42], [5.32, 59.23], [5.3, 59.17], [5.24, 59.14], [5.19, 59.16], [5.18, 59.29]]], [[[5.19, 59.74], [5.15, 59.67], [5.21, 59.68], [5.2, 59.61], [5.15, 59.59], [5.12, 59.69], [5.19, 59.76], [5.08, 59.77], [5.1, 59.83], [5.15, 59.83], [5.1, 59.87], [5.15, 59.87], [5.34, 59.71], [5.31, 59.7], [5.27, 59.75], [5.19, 59.74]]], [[[5.32, 59.78], [5.26, 59.87], [5.29, 59.97], [5.39, 59.96], [5.49, 59.86], [5.48, 59.79], [5.42, 59.76], [5.36, 59.76], [5.4, 59.77], [5.32, 59.78]]], [[[5.48, 59.96], [5.41, 59.96], [5.36, 60.0], [5.45, 60.01], [5.46, 60.05], [5.66, 60.08], [5.66, 60.02], [5.61, 59.96], [5.64, 59.92], [5.51, 59.9], [5.48, 59.96]]], [[[5.17, 60.05], [5.2, 60.09], [5.22, 60.04], [5.25, 60.05], [5.22, 60.12], [5.3, 60.05], [5.27, 59.99], [5.17, 60.05]]], [[[5.28, 60.15], [5.33, 60.18], [5.3, 60.19], [5.35, 60.22], [5.22, 60.21], [5.31, 60.27], [5.17, 60.28], [5.17, 60.32], [5.23, 60.32], [5.14, 60.35], [5.18, 60.39], [5.3, 60.4], [5.24, 60.47], [5.31, 60.53], [5.48, 60.44], [5.65, 60.43], [5.71, 60.48], [5.71, 60.6], [5.75, 60.72], [5.66, 60.7], [5.7, 60.75], [5.68, 60.76], [5.59, 60.7], [5.53, 60.7], [5.53, 60.63], [5.3, 60.56], [5.22, 60.57], [5.08, 60.66], [5.23, 60.62], [5.08, 60.71], [5.15, 60.7], [5.13, 60.72], [4.93, 60.8], [4.98, 60.81], [5.28, 60.72], [5.35, 60.64], [5.37, 60.64], [5.35, 60.66], [5.43, 60.63], [5.37, 60.67], [5.43, 60.66], [5.41, 60.7], [5.24, 60.78], [5.35, 60.81], [5.36, 60.85], [5.54, 60.88], [5.47, 60.91], [5.33, 60.87], [5.29, 60.82], [5.19, 60.83], [5.17, 60.85], [5.13, 60.81], [5.13, 60.83], [5.05, 60.84], [5.01, 60.93], [4.98, 60.95], [5.08, 60.95], [5.1, 60.88], [5.1, 60.95], [5.14, 60.99], [5.01, 60.98], [5.02, 61.05], [5.14, 61.08], [5.43, 61.03], [5.45, 61.0], [5.46, 61.05], [5.53, 61.08], [5.64, 61.06], [5.6, 61.09], [5.77, 61.11], [5.78, 61.06], [5.86, 61.12], [6.1, 61.12], [6.26, 61.09], [6.24, 61.05], [6.36, 61.07], [6.36, 61.01], [6.44, 61.08], [6.55, 61.1], [6.6, 61.18], [6.84, 61.14], [6.87, 61.09], [6.96, 61.09], [7.01, 61.01], [6.87, 60.94], [7.05, 60.96], [7.13, 60.93], [7.11, 60.86], [7.16, 60.9], [7.16, 60.95], [7.09, 60.96], [7.0, 61.09], [7.22, 61.14], [7.44, 61.1], [7.35, 61.14], [7.43, 61.19], [7.61, 61.2], [7.69, 61.23], [7.39, 61.2], [7.31, 61.29], [7.38, 61.38], [7.57, 61.49], [7.35, 61.39], [7.26, 61.4], [7.31, 61.35], [7.24, 61.3], [7.36, 61.19], [7.31, 61.16], [7.21, 61.18], [6.95, 61.11], [6.92, 61.14], [7.0, 61.18], [6.89, 61.16], [6.56, 61.22], [6.7, 61.34], [6.7, 61.4], [6.6, 61.28], [6.5, 61.27], [6.54, 61.2], [6.47, 61.21], [6.51, 61.15], [6.43, 61.11], [6.28, 61.13], [6.17, 61.18], [6.07, 61.15], [5.96, 61.16], [6.04, 61.2], [5.8, 61.16], [5.78, 61.2], [5.75, 61.16], [5.56, 61.14], [5.42, 61.08], [5.3, 61.13], [5.19, 61.11], [5.16, 61.13], [5.23, 61.14], [5.04, 61.16], [5.06, 61.19], [5.22, 61.16], [5.21, 61.18], [5.25, 61.18], [5.17, 61.22], [5.02, 61.22], [4.99, 61.22], [5.06, 61.25], [4.95, 61.25], [5.2, 61.34], [5.28, 61.32], [5.32, 61.25], [5.32, 61.32], [5.26, 61.35], [5.63, 61.36], [5.16, 61.36], [5.06, 61.32], [5.0, 61.38], [5.04, 61.4], [5.06, 61.37], [5.11, 61.43], [4.95, 61.42], [5.18, 61.47], [5.52, 61.43], [5.67, 61.49], [5.49, 61.45], [5.4, 61.49], [5.29, 61.48], [5.14, 61.52], [5.14, 61.55], [5.36, 61.56], [5.15, 61.6], [5.43, 61.59], [5.27, 61.62], [5.34, 61.64], [4.99, 61.63], [4.94, 61.68], [5.0, 61.75], [5.17, 61.73], [5.13, 61.75], [5.19, 61.77], [5.06, 61.76], [5.34, 61.84], [5.29, 61.86], [5.39, 61.91], [5.68, 61.89], [5.74, 61.85], [5.62, 61.81], [5.94, 61.85], [5.9, 61.74], [5.99, 61.84], [6.18, 61.77], [6.06, 61.84], [6.47, 61.8], [6.59, 61.87], [6.78, 61.84], [6.82, 61.87], [6.68, 61.9], [6.56, 61.88], [6.48, 61.83], [5.89, 61.88], [5.8, 61.86], [5.73, 61.89], [5.96, 61.92], [5.52, 61.94], [5.22, 61.91], [5.4, 62.02], [5.38, 62.04], [5.43, 62.07], [5.46, 62.01], [5.54, 62.08], [5.47, 62.1], [5.56, 62.17], [5.75, 62.09], [5.67, 62.17], [5.91, 62.19], [5.92, 62.12], [5.85, 62.02], [5.94, 62.09], [5.95, 62.14], [6.04, 62.1], [6.05, 62.07], [6.37, 62.06], [6.09, 62.11], [5.92, 62.21], [5.94, 62.23], [6.02, 62.21], [6.06, 62.2], [5.95, 62.25], [6.03, 62.31], [6.25, 62.36], [6.31, 62.37], [6.48, 62.23], [6.56, 62.15], [6.53, 62.11], [6.59, 62.14], [6.58, 62.16], [6.42, 62.31], [6.4, 62.39], [6.5, 62.4], [6.56, 62.36], [6.54, 62.41], [6.69, 62.45], [6.88, 62.42], [6.87, 62.36], [7.0, 62.25], [7.01, 62.19], [6.94, 62.12], [6.99, 62.09], [7.19, 62.1], [7.15, 62.13], [6.98, 62.11], [7.04, 62.18], [7.04, 62.27], [7.21, 62.25], [7.31, 62.28], [7.42, 62.23], [7.29, 62.3], [7.16, 62.29], [6.96, 62.33], [6.91, 62.37], [6.98, 62.38], [6.85, 62.45], [6.76, 62.46], [6.79, 62.48], [6.4, 62.43], [6.24, 62.45], [6.22, 62.46], [6.45, 62.5], [6.67, 62.49], [6.61, 62.52], [6.48, 62.51], [6.56, 62.53], [6.53, 62.54], [6.26, 62.53], [6.25, 62.57], [6.29, 62.6], [6.54, 62.62], [6.61, 62.56], [6.62, 62.62], [6.76, 62.65], [6.92, 62.57], [6.93, 62.62], [6.89, 62.64], [7.09, 62.65], [7.04, 62.62], [7.1, 62.61], [7.13, 62.53], [7.16, 62.63], [7.37, 62.59], [7.43, 62.55], [7.52, 62.54], [7.54, 62.5], [7.57, 62.55], [7.78, 62.57], [7.51, 62.57], [7.42, 62.6], [7.42, 62.63], [7.48, 62.64], [7.52, 62.58], [7.52, 62.67], [7.84, 62.73], [8.02, 62.73], [8.15, 62.69], [8.05, 62.76], [8.07, 62.78], [7.49, 62.69], [7.36, 62.7], [7.4, 62.71], [7.37, 62.73], [7.47, 62.77], [7.31, 62.74], [6.97, 62.73], [6.95, 62.73], [6.98, 62.75], [6.96, 62.78], [7.01, 62.81], [7.22, 62.81], [7.13, 62.85], [7.02, 62.84], [6.95, 62.91], [6.88, 62.91], [7.08, 62.98], [7.27, 63.01], [7.5, 62.91], [7.67, 62.98], [7.78, 62.97], [7.67, 62.92], [7.69, 62.91], [7.97, 62.98], [8.09, 62.95], [8.15, 62.81], [8.51, 62.71], [8.55, 62.66], [8.57, 62.68], [8.54, 62.72], [8.18, 62.85], [8.17, 62.89], [8.21, 62.91], [8.15, 62.95], [7.98, 63.03], [7.88, 63.01], [8.0, 63.09], [8.09, 63.11], [8.16, 63.03], [8.33, 62.97], [8.31, 62.94], [8.33, 62.88], [8.54, 62.85], [8.43, 62.9], [8.45, 62.9], [8.7, 62.82], [8.42, 62.96], [8.67, 62.98], [8.52, 62.99], [8.59, 63.02], [8.55, 63.02], [8.37, 62.97], [8.32, 63.0], [8.47, 63.02], [8.24, 63.03], [8.17, 63.12], [8.22, 63.13], [8.28, 63.08], [8.32, 63.11], [8.24, 63.15], [8.64, 63.11], [8.57, 63.16], [8.94, 63.21], [8.62, 63.2], [8.48, 63.29], [8.76, 63.35], [8.64, 63.39], [8.67, 63.42], [8.82, 63.43], [8.88, 63.4], [8.89, 63.42], [9.0, 63.42], [8.97, 63.43], [9.02, 63.47], [9.15, 63.38], [9.09, 63.29], [9.26, 63.36], [9.43, 63.38], [9.48, 63.4], [9.22, 63.37], [9.17, 63.42], [9.48, 63.47], [9.48, 63.49], [9.33, 63.47], [9.26, 63.5], [9.29, 63.46], [9.15, 63.49], [9.37, 63.56], [9.4, 63.52], [9.5, 63.58], [9.57, 63.54], [9.55, 63.58], [9.49, 63.59], [9.7, 63.64], [9.8, 63.56], [9.81, 63.51], [9.96, 63.43], [9.93, 63.38], [9.83, 63.33], [10.01, 63.36], [10.1, 63.32], [10.24, 63.33], [10.26, 63.27], [10.27, 63.33], [10.07, 63.37], [10.04, 63.41], [10.3, 63.47], [10.58, 63.43], [10.69, 63.45], [10.8, 63.42], [10.91, 63.46], [10.78, 63.49], [10.76, 63.52], [10.92, 63.55], [10.86, 63.57], [10.92, 63.6], [10.66, 63.55], [10.91, 63.68], [11.03, 63.72], [11.16, 63.71], [11.27, 63.77], [11.46, 63.79], [11.42, 63.85], [11.11, 63.85], [11.1, 63.89], [11.5, 64.02], [11.25, 64.04], [11.24, 64.06], [11.36, 64.12], [11.3, 64.11], [11.23, 64.07], [11.18, 64.01], [10.57, 63.81], [10.9, 63.89], [11.06, 63.86], [11.07, 63.84], [10.91, 63.73], [10.67, 63.69], [10.6, 63.64], [10.42, 63.58], [9.98, 63.49], [9.92, 63.51], [9.9, 63.59], [9.82, 63.61], [9.83, 63.64], [9.79, 63.66], [9.8, 63.69], [10.0, 63.72], [10.1, 63.77], [10.01, 63.75], [10.03, 63.78], [9.54, 63.67], [9.55, 63.73], [9.78, 63.77], [9.55, 63.77], [9.87, 63.86], [9.79, 63.88], [10.2, 63.94], [10.14, 63.97], [9.94, 63.92], [10.13, 63.99], [9.94, 63.96], [10.02, 64.04], [10.01, 64.12], [10.19, 64.1], [10.22, 64.12], [10.11, 64.12], [10.2, 64.16], [10.17, 64.2], [10.37, 64.19], [10.25, 64.23], [10.49, 64.3], [10.45, 64.31], [10.47, 64.36], [10.56, 64.33], [10.5, 64.37], [10.65, 64.36], [10.55, 64.41], [10.63, 64.4], [10.59, 64.43], [10.6, 64.45], [10.83, 64.37], [10.85, 64.38], [10.79, 64.41], [10.8, 64.43], [10.66, 64.45], [10.76, 64.48], [10.84, 64.47], [10.8, 64.51], [10.82, 64.51], [10.89, 64.47], [10.96, 64.49], [10.92, 64.51], [10.96, 64.51], [10.96, 64.55], [10.92, 64.58], [10.97, 64.6], [11.06, 64.58], [11.08, 64.52], [11.17, 64.49], [11.16, 64.45], [11.34, 64.43], [11.22, 64.32], [11.25, 64.33], [11.39, 64.41], [11.36, 64.41], [11.41, 64.45], [11.66, 64.48], [11.44, 64.47], [11.46, 64.51], [11.54, 64.52], [11.51, 64.55], [11.57, 64.54], [11.78, 64.6], [11.64, 64.58], [11.61, 64.63], [11.55, 64.6], [11.59, 64.6], [11.58, 64.58], [11.52, 64.57], [11.42, 64.64], [11.4, 64.69], [11.42, 64.7], [11.4, 64.71], [11.62, 64.74], [11.55, 64.77], [11.84, 64.79], [11.64, 64.82], [11.79, 64.84], [11.79, 64.86], [11.65, 64.84], [11.75, 64.88], [12.06, 64.96], [12.22, 64.94], [12.05, 64.97], [11.91, 64.95], [11.62, 64.87], [11.62, 64.84], [11.48, 64.81], [11.4, 64.76], [11.26, 64.73], [11.24, 64.74], [11.43, 64.82], [11.23, 64.82], [11.25, 64.84], [11.52, 64.86], [11.7, 64.91], [11.25, 64.86], [11.27, 64.87], [11.42, 64.93], [11.53, 64.9], [11.48, 64.93], [11.82, 64.98], [11.81, 65.02], [11.98, 65.07], [12.02, 65.03], [12.05, 65.07], [12.08, 65.04], [12.14, 65.05], [12.19, 64.99], [12.19, 65.05], [12.64, 65.13], [12.6, 65.14], [12.79, 65.21], [12.93, 65.31], [12.93, 65.33], [12.5, 65.14], [12.37, 65.15], [12.5, 65.2], [12.36, 65.23], [12.71, 65.25], [12.44, 65.27], [12.25, 65.23], [12.34, 65.3], [12.45, 65.31], [12.48, 65.34], [12.41, 65.32], [12.5, 65.37], [12.55, 65.36], [12.51, 65.4], [12.48, 65.45], [12.6, 65.43], [12.71, 65.37], [12.63, 65.43], [12.78, 65.46], [12.61, 65.46], [12.66, 65.48], [12.56, 65.51], [12.62, 65.53], [12.57, 65.59], [12.51, 65.51], [12.47, 65.52], [12.53, 65.58], [12.44, 65.53], [12.4, 65.55], [12.42, 65.6], [12.36, 65.6], [12.36, 65.65], [12.5, 65.73], [12.64, 65.69], [12.56, 65.75], [12.65, 65.81], [12.72, 65.79], [12.69, 65.84], [12.61, 65.83], [12.68, 65.93], [12.85, 65.97], [13.04, 65.93], [13.18, 65.86], [13.12, 65.94], [12.92, 65.99], [13.04, 66.08], [12.71, 66.04], [12.67, 66.06], [12.87, 66.13], [13.09, 66.15], [13.31, 66.22], [13.53, 66.24], [13.58, 66.22], [13.49, 66.19], [13.58, 66.19], [13.54, 66.11], [13.64, 66.16], [13.82, 66.15], [13.82, 66.17], [13.61, 66.19], [13.7, 66.24], [13.81, 66.23], [13.76, 66.2], [13.99, 66.24], [14.14, 66.33], [13.91, 66.27], [13.75, 66.3], [13.62, 66.24], [13.58, 66.26], [13.62, 66.28], [13.58, 66.29], [13.04, 66.18], [13.03, 66.2], [13.16, 66.26], [13.53, 66.31], [13.4, 66.32], [13.45, 66.34], [13.36, 66.34], [13.31, 66.37], [13.34, 66.33], [13.23, 66.3], [13.14, 66.3], [13.15, 66.33], [13.04, 66.32], [13.0, 66.36], [13.14, 66.39], [13.17, 66.41], [13.16, 66.44], [13.1, 66.45], [13.16, 66.47], [12.97, 66.52], [13.1, 66.54], [13.21, 66.51], [13.23, 66.45], [13.36, 66.46], [13.4, 66.47], [13.27, 66.47], [13.29, 66.51], [13.26, 66.52], [13.49, 66.55], [13.67, 66.52], [13.46, 66.56], [13.6, 66.61], [13.5, 66.61], [13.42, 66.56], [13.24, 66.55], [13.2, 66.56], [13.25, 66.61], [13.4, 66.63], [13.17, 66.65], [13.19, 66.67], [13.55, 66.64], [13.48, 66.68], [13.23, 66.71], [13.69, 66.69], [13.72, 66.7], [13.7, 66.71], [13.89, 66.74], [13.58, 66.71], [13.55, 66.72], [13.56, 66.75], [13.75, 66.76], [13.51, 66.78], [13.61, 66.81], [13.99, 66.79], [13.69, 66.84], [13.7, 66.86], [13.63, 66.9], [13.52, 66.91], [13.54, 66.92], [13.97, 66.99], [13.89, 66.95], [13.93, 66.93], [14.04, 66.98], [14.01, 67.02], [14.06, 67.06], [14.15, 66.97], [14.23, 66.98], [14.27, 67.06], [14.53, 67.05], [14.57, 67.02], [14.58, 67.06], [14.27, 67.08], [14.36, 67.16], [14.45, 67.17], [14.42, 67.11], [14.46, 67.15], [14.68, 67.16], [14.51, 67.18], [14.6, 67.2], [14.65, 67.19], [14.98, 67.21], [14.89, 67.15], [14.99, 67.1], [14.93, 67.15], [15.09, 67.21], [15.38, 67.16], [15.38, 67.1], [15.5, 67.07], [15.44, 67.1], [15.48, 67.15], [15.38, 67.2], [15.74, 67.17], [15.71, 67.21], [15.41, 67.24], [15.29, 67.21], [15.26, 67.21], [15.34, 67.24], [15.06, 67.25], [15.14, 67.27], [15.17, 67.31], [14.99, 67.27], [14.77, 67.27], [14.84, 67.26], [14.67, 67.22], [14.62, 67.21], [14.7, 67.28], [14.33, 67.24], [14.6, 67.38], [14.58, 67.4], [14.62, 67.42], [14.8, 67.42], [14.82, 67.41], [14.8, 67.39], [14.82, 67.38], [15.05, 67.45], [14.82, 67.45], [14.84, 67.46], [14.73, 67.49], [15.01, 67.56], [14.99, 67.55], [15.06, 67.52], [15.01, 67.49], [14.83, 67.48], [15.02, 67.47], [15.19, 67.52], [15.21, 67.49], [15.15, 67.48], [15.17, 67.47], [15.14, 67.42], [15.24, 67.48], [15.43, 67.48], [15.55, 67.35], [15.64, 67.3], [15.6, 67.28], [15.66, 67.28], [15.7, 67.3], [15.51, 67.43], [15.58, 67.46], [15.53, 67.47], [15.6, 67.51], [15.9, 67.56], [15.67, 67.55], [15.5, 67.51], [15.24, 67.53], [15.23, 67.56], [15.26, 67.58], [15.24, 67.58], [15.28, 67.59], [15.47, 67.58], [15.41, 67.63], [15.36, 67.61], [15.18, 67.62], [15.34, 67.69], [15.27, 67.69], [15.3, 67.72], [15.54, 67.67], [15.51, 67.69], [15.66, 67.68], [15.4, 67.74], [15.6, 67.75], [15.8, 67.68], [15.84, 67.69], [15.63, 67.76], [15.69, 67.8], [15.59, 67.77], [15.41, 67.8], [15.45, 67.83], [15.43, 67.86], [15.4, 67.82], [15.37, 67.87], [15.38, 67.8], [15.18, 67.71], [14.84, 67.64], [14.73, 67.66], [14.88, 67.7], [14.79, 67.73], [15.12, 67.74], [14.99, 67.77], [15.03, 67.78], [14.83, 67.76], [14.83, 67.79], [14.78, 67.78], [14.75, 67.8], [14.77, 67.82], [15.1, 67.85], [14.85, 67.84], [15.0, 67.9], [15.23, 67.87], [15.2, 67.83], [15.3, 67.89], [15.48, 67.92], [15.54, 67.92], [15.5, 67.88], [15.53, 67.85], [15.53, 67.89], [15.6, 67.93], [15.75, 67.95], [15.86, 67.9], [15.97, 68.01], [16.06, 68.02], [16.19, 67.98], [16.24, 67.88], [16.44, 67.81], [16.51, 67.8], [16.46, 67.82], [16.45, 67.85], [16.27, 67.89], [16.28, 67.98], [16.21, 68.0], [16.27, 68.01], [16.41, 67.91], [16.47, 67.9], [16.45, 67.93], [16.47, 67.94], [16.33, 68.0], [16.38, 68.01], [16.45, 67.96], [16.54, 67.96], [16.46, 67.98], [16.5, 68.02], [16.36, 68.03], [16.39, 68.06], [16.46, 68.09], [16.66, 68.05], [16.69, 68.07], [16.5, 68.12], [16.29, 68.09], [16.3, 68.11], [16.24, 68.13], [16.47, 68.15], [16.41, 68.19], [16.59, 68.17], [16.45, 68.23], [16.17, 68.2], [16.36, 68.24], [16.1, 68.28], [16.17, 68.32], [16.28, 68.31], [16.51, 68.26], [16.56, 68.23], [16.56, 68.19], [16.8, 68.13], [16.61, 68.22], [16.57, 68.28], [16.22, 68.35], [16.69, 68.41], [16.87, 68.37], [16.82, 68.32], [17.13, 68.37], [17.22, 68.28], [17.33, 68.26], [17.31, 68.23], [17.33, 68.17], [17.36, 68.18], [17.35, 68.23], [17.42, 68.24], [17.22, 68.34], [17.21, 68.37], [17.25, 68.41], [17.58, 68.36], [17.36, 68.41], [17.54, 68.43], [17.82, 68.38], [17.87, 68.39], [17.61, 68.45], [17.47, 68.45], [17.55, 68.53], [17.05, 68.43], [17.0, 68.45], [17.09, 68.48], [16.99, 68.51], [16.85, 68.45], [16.51, 68.44], [16.46, 68.51], [16.54, 68.54], [16.62, 68.53], [16.56, 68.59], [16.6, 68.63], [16.99, 68.71], [17.09, 68.64], [17.17, 68.63], [17.1, 68.69], [17.25, 68.72], [17.46, 68.67], [17.68, 68.66], [17.49, 68.69], [17.4, 68.74], [17.23, 68.76], [17.46, 68.82], [17.78, 68.75], [17.78, 68.78], [17.74, 68.79], [17.47, 68.83], [17.71, 68.89], [17.85, 68.87], [17.83, 68.89], [17.71, 68.91], [17.72, 68.93], [17.43, 68.9], [17.53, 68.96], [17.49, 69.0], [17.68, 69.09], [17.63, 69.11], [17.66, 69.12], [18.15, 69.15], [18.07, 69.18], [18.11, 69.23], [17.99, 69.24], [18.0, 69.29], [18.14, 69.35], [18.18, 69.41], [18.16, 69.46], [18.26, 69.49], [18.38, 69.43], [18.36, 69.39], [18.5, 69.37], [18.5, 69.24], [18.56, 69.36], [18.6, 69.3], [18.69, 69.26], [18.7, 69.29], [18.67, 69.3], [18.74, 69.32], [19.01, 69.29], [18.95, 69.33], [18.66, 69.37], [18.58, 69.43], [18.45, 69.45], [18.49, 69.48], [18.47, 69.52], [18.85, 69.55], [18.84, 69.5], [19.01, 69.43], [19.01, 69.4], [19.38, 69.32], [19.35, 69.29], [19.22, 69.28], [19.18, 69.25], [19.25, 69.27], [19.27, 69.25], [19.25, 69.24], [19.3, 69.22], [19.51, 69.23], [19.45, 69.26], [19.43, 69.34], [19.32, 69.38], [19.12, 69.39], [18.99, 69.48], [19.03, 69.52], [19.18, 69.55], [19.26, 69.52], [19.23, 69.57], [19.02, 69.53], [18.96, 69.56], [18.94, 69.62], [19.08, 69.69], [19.1, 69.74], [19.25, 69.78], [19.78, 69.8], [19.67, 69.68], [19.73, 69.64], [19.63, 69.52], [19.65, 69.46], [19.53, 69.4], [19.69, 69.44], [19.74, 69.61], [20.06, 69.58], [20.11, 69.59], [19.86, 69.63], [19.82, 69.71], [20.01, 69.84], [19.97, 69.76], [20.01, 69.77], [20.17, 69.94], [20.17, 69.88], [20.21, 69.86], [20.21, 69.93], [20.31, 69.96], [20.43, 69.88], [20.32, 69.68], [20.38, 69.63], [20.38, 69.6], [20.27, 69.56], [20.3, 69.54], [20.27, 69.52], [20.28, 69.49], [20.22, 69.47], [20.17, 69.39], [20.0, 69.35], [19.92, 69.27], [20.28, 69.39], [20.48, 69.58], [20.72, 69.53], [20.65, 69.59], [20.48, 69.64], [20.54, 69.71], [20.48, 69.76], [20.79, 69.8], [20.82, 69.84], [21.0, 69.6], [20.8, 69.51], [20.79, 69.51], [18.5, 68.5], [16.0, 67.5], [15.5, 66.5], [14.0, 65.0], [13.3, 64.0], [12.0, 63.0], [12.3, 62.0], [12.4, 61.0], [12.2, 60.0], [11.8, 59.2], [12.3, 58.5], [11.9, 57.72], [11.73, 57.73], [11.8, 57.77], [11.66, 57.84], [11.76, 57.9], [11.74, 57.94], [11.8, 58.02], [11.79, 58.1], [11.83, 58.12], [11.84, 58.19], [11.89, 58.22], [11.85, 58.23], [11.81, 58.3], [11.88, 58.33], [11.73, 58.33], [11.51, 58.24], [11.54, 58.33], [11.67, 58.42], [11.59, 58.4], [11.55, 58.46], [11.52, 58.34], [11.4, 58.26], [11.44, 58.31], [11.38, 58.32], [11.45, 58.34], [11.42, 58.39], [11.35, 58.35], [11.42, 58.44], [11.33, 58.37], [11.22, 58.35], [11.21, 58.42], [11.26, 58.42], [11.29, 58.47], [11.24, 58.51], [11.29, 58.58], [11.21, 58.68], [11.22, 58.71], [11.18, 58.72], [11.23, 58.81], [11.2, 58.92], [11.11, 58.95], [11.18, 58.99], [11.12, 59.01], [11.19, 59.08], [11.32, 59.1], [11.18, 59.12], [11.17, 59.14], [11.21, 59.15], [11.18, 59.2], [11.14, 59.18], [11.14, 59.14], [11.09, 59.18], [11.1, 59.13], [11.03, 59.13], [10.95, 59.18], [10.92, 59.14], [10.9, 59.2], [10.82, 59.16], [10.78, 59.19], [10.77, 59.25], [10.74, 59.22], [10.78, 59.31], [10.67, 59.32], [10.64, 59.37], [10.66, 59.4], [10.59, 59.43], [10.64, 59.49], [10.66, 59.44], [10.69, 59.48], [10.65, 59.53], [10.61, 59.7], [10.56, 59.73], [10.66, 59.86], [10.72, 59.74], [10.75, 59.89], [10.69, 59.91], [10.48, 59.85], [10.5, 59.71], [10.61, 59.61], [10.54, 59.54], [10.44, 59.52], [10.4, 59.69], [10.27, 59.74], [10.22, 59.72], [10.38, 59.66], [10.38, 59.54], [10.24, 59.56], [10.37, 59.46], [10.48, 59.43], [10.44, 59.35], [10.51, 59.3], [10.47, 59.25], [10.36, 59.27], [10.36, 59.22], [10.33, 59.21], [10.31, 59.13], [10.29, 59.13], [10.31, 59.06], [10.27, 59.11], [10.26, 59.04], [10.22, 59.11], [10.23, 59.04], [10.21, 59.02], [10.11, 59.01], [10.16, 59.05], [10.06, 59.02], [10.02, 59.03], [10.01, 58.97], [9.85, 58.96], [9.81, 58.96], [9.85, 58.99], [9.78, 59.05], [9.76, 59.03], [9.69, 59.09], [9.67, 59.05], [9.73, 59.02], [9.72, 58.98], [9.66, 58.98], [9.69, 58.96], [9.58, 58.92], [9.47, 58.93], [9.51, 58.9], [9.37, 58.9], [9.4, 58.88], [9.34, 58.86], [9.3, 58.88], [9.27, 58.83], [9.45, 58.83], [9.31, 58.74], [9.07, 58.74], [9.22, 58.7], [9.06, 58.68], [9.2, 58.67], [9.03, 58.59], [8.91, 58.61], [8.95, 58.58], [8.93, 58.51], [8.71, 58.38], [8.61, 58.33], [8.58, 58.35], [8.5, 58.26], [8.41, 58.27], [8.41, 58.24], [8.24, 58.2], [8.27, 58.2], [8.2, 58.12], [8.17, 58.15], [8.12, 58.1], [8.05, 58.11], [8.02, 58.14], [8.08, 58.16], [8.0, 58.22], [8.02, 58.16], [7.92, 58.08], [7.66, 58.07], [7.61, 58.02], [7.58, 58.05], [7.58, 58.02], [7.16, 58.05], [7.01, 57.99], [7.0, 58.03], [7.12, 58.06], [7.15, 58.1], [6.94, 58.05], [6.98, 58.11], [6.9, 58.05], [6.91, 58.1], [6.87, 58.08], [6.8, 58.1], [6.99, 58.14], [6.87, 58.13], [6.78, 58.18], [6.81, 58.12], [6.73, 58.12], [6.72, 58.19], [6.69, 58.12], [6.78, 58.07], [6.62, 58.07], [6.53, 58.12], [6.6, 58.18], [6.67, 58.18], [6.65, 58.19], [6.68, 58.21], [6.85, 58.27], [6.68, 58.22], [6.63, 58.27], [6.66, 58.3], [6.7, 58.29], [6.69, 58.33], [6.62, 58.32], [6.63, 58.24], [6.4, 58.27], [6.01, 58.38], [5.95, 58.48], [5.8, 58.49], [5.78, 58.52], [5.65, 58.55], [5.48, 58.75], [5.53, 58.78], [5.53, 58.87], [5.57, 58.89], [5.54, 58.96], [5.62, 58.91], [5.63, 58.93], [5.55, 58.97], [5.58, 58.99], [5.52, 58.99], [5.55, 59.04], [5.72, 58.98], [5.72, 58.87], [5.74, 58.93], [5.85, 58.97], [6.09, 58.85], [6.12, 58.85], [6.06, 58.9], [6.19, 58.98], [6.63, 59.05], [6.16, 59.0], [6.03, 58.91], [5.98, 58.96], [6.05, 59.0], [5.93, 59.02], [5.88, 59.07], [5.89, 59.1], [6.13, 59.15], [6.01, 59.15], [6.17, 59.26], [6.32, 59.32], [6.31, 59.32], [6.15, 59.27], [6.08, 59.31], [6.24, 59.32], [6.2, 59.35], [6.17, 59.32], [6.09, 59.32], [6.06, 59.35], [6.0, 59.33], [6.04, 59.38], [6.19, 59.43], [6.24, 59.51], [6.54, 59.56], [6.24, 59.53], [6.31, 59.66], [6.29, 59.65], [6.15, 59.46], [6.03, 59.4], [5.98, 59.43], [5.97, 59.4], [6.0, 59.38], [5.92, 59.36], [5.89, 59.45], [6.15, 59.48], [5.9, 59.48], [5.81, 59.54], [5.78, 59.53], [5.8, 59.46], [5.75, 59.45], [5.71, 59.47], [5.7, 59.43], [5.65, 59.41], [5.78, 59.43], [5.86, 59.35], [5.7, 59.34], [5.61, 59.29], [5.65, 59.33], [5.59, 59.4], [5.57, 59.32], [5.51, 59.28], [5.44, 59.31], [5.43, 59.41], [5.4, 59.3], [5.37, 59.31], [5.35, 59.42], [5.33, 59.35], [5.3, 59.34], [5.21, 59.42], [5.2, 59.43], [5.18, 59.51], [5.24, 59.53], [5.2, 59.55], [5.34, 59.65], [5.39, 59.65], [5.41, 59.59], [5.43, 59.64], [5.4, 59.67], [5.49, 59.74], [5.49, 59.58], [5.42, 59.54], [5.42, 59.5], [5.52, 59.54], [5.56, 59.68], [5.72, 59.66], [5.72, 59.61], [5.75, 59.61], [5.79, 59.66], [5.88, 59.66], [5.88, 59.68], [5.75, 59.68], [5.81, 59.73], [5.9, 59.76], [6.04, 59.75], [6.29, 59.84], [6.31, 59.85], [6.0, 59.76], [5.93, 59.78], [5.97, 59.86], [5.91, 59.79], [5.83, 59.77], [5.72, 59.83], [5.72, 59.86], [5.68, 59.84], [5.65, 59.85], [5.74, 59.88], [5.77, 59.93], [5.97, 59.96], [5.98, 59.98], [5.95, 60.0], [6.01, 60.06], [6.29, 60.12], [6.26, 60.16], [6.11, 60.11], [6.07, 60.2], [6.14, 60.22], [6.2, 60.3], [6.35, 60.37], [6.5, 60.43], [6.64, 60.42], [6.53, 60.26], [6.51, 60.14], [6.52, 60.08], [6.57, 60.27], [6.65, 60.38], [6.8, 60.47], [7.08, 60.48], [7.11, 60.51], [6.9, 60.51], [7.02, 60.59], [6.99, 60.59], [6.86, 60.5], [6.66, 60.43], [6.59, 60.44], [6.7, 60.52], [6.3, 60.39], [6.23, 60.41], [6.18, 60.47], [6.24, 60.38], [6.12, 60.37], [6.19, 60.36], [6.14, 60.31], [6.16, 60.29], [6.14, 60.25], [6.0, 60.26], [5.91, 60.17], [5.85, 60.15], [5.86, 60.02], [5.77, 60.02], [5.74, 59.99], [5.69, 60.06], [5.78, 60.07], [5.8, 60.09], [5.72, 60.08], [5.71, 60.18], [5.59, 60.14], [5.54, 60.16], [5.57, 60.18], [5.56, 60.2], [5.71, 60.23], [5.6, 60.23], [5.63, 60.27], [5.57, 60.24], [5.67, 60.36], [5.64, 60.35], [5.63, 60.37], [5.53, 60.22], [5.41, 60.13], [5.35, 60.16], [5.28, 60.15]]], [[[5.02, 60.29], [5.04, 60.31], [4.97, 60.33], [4.94, 60.43], [4.97, 60.44], [5.09, 60.32], [5.08, 60.29], [5.05, 60.29], [5.11, 60.2], [5.06, 60.19], [5.04, 60.24], [4.99, 60.23], [4.94, 60.29], [5.02, 60.29]]], [[[5.13, 60.44], [5.06, 60.46], [5.05, 60.5], [4.99, 60.51], [4.96, 60.56], [5.15, 60.5], [5.2, 60.45], [5.14, 60.4], [5.13, 60.44]]], [[[5.32, 60.55], [5.57, 60.63], [5.61, 60.69], [5.69, 60.68], [5.68, 60.47], [5.5, 60.44], [5.32, 60.55]]], [[[4.64, 61.06], [4.7, 61.08], [4.74, 61.01], [4.69, 61.0], [4.64, 61.06]]], [[[4.79, 61.15], [4.83, 61.16], [4.86, 61.12], [4.84, 61.2], [4.9, 61.14], [4.92, 61.19], [4.96, 61.18], [4.99, 61.1], [4.89, 61.06], [4.86, 61.1], [4.81, 61.06], [4.79, 61.15]]], [[[5.7, 62.19], [5.59, 62.19], [5.72, 62.29], [5.8, 62.28], [5.78, 62.21], [5.7, 62.19]]], [[[5.85, 62.28], [5.81, 62.36], [5.9, 62.43], [6.08, 62.34], [5.82, 62.26], [5.85, 62.28]]], [[[6.33, 62.41], [6.09, 62.4], [6.02, 62.44], [6.33, 62.41]]], [[[6.7, 62.74], [6.85, 62.75], [6.92, 62.72], [6.67, 62.66], [6.66, 62.69], [6.7, 62.74]]], [[[6.77, 62.82], [6.8, 62.82], [6.78, 62.85], [6.94, 62.84], [6.88, 62.81], [6.9, 62.78], [6.77, 62.82]]], [[[7.37, 63.0], [7.44, 63.02], [7.4, 63.06], [7.49, 63.07], [7.57, 63.02], [7.61, 63.08], [7.59, 63.12], [7.65, 63.11], [7.64, 63.06], [7.71, 63.01], [7.49, 62.95], [7.37, 63.0]]], [[[7.68, 63.06], [7.73, 63.1], [7.91, 63.08], [7.84, 63.03], [7.68, 63.06]]], [[[8.13, 63.23], [8.19, 63.16], [8.02, 63.14], [7.93, 63.18], [8.08, 63.24], [8.13, 63.23]]], [[[8.31, 63.19], [8.33, 63.17], [8.21, 63.16], [8.17, 63.21], [8.24, 63.22], [8.31, 63.19]]], [[[8.4, 63.23], [8.41, 63.28], [8.45, 63.28], [8.57, 63.2], [8.37, 63.16], [8.26, 63.23], [8.28, 63.27], [8.4, 63.23]]], [[[8.1, 63.46], [8.18, 63.39], [8.09, 63.33], [7.98, 63.32], [7.91, 63.34], [8.0, 63.34], [7.79, 63.38], [7.78, 63.41], [8.0, 63.47], [8.1, 63.46]]], [[[8.28, 63.47], [8.41, 63.56], [8.43, 63.56], [8.72, 63.57], [8.55, 63.6], [8.56, 63.61], [8.79, 63.64], [8.85, 63.62], [8.87, 63.65], [8.95, 63.66], [8.99, 63.59], [9.08, 63.61], [9.18, 63.57], [9.11, 63.53], [8.5, 63.43], [8.28, 63.47]]], [[[8.81, 63.82], [8.83, 63.72], [8.79, 63.7], [8.48, 63.66], [8.46, 63.67], [8.53, 63.69], [8.27, 63.69], [8.74, 63.77], [8.68, 63.77], [8.81, 63.82]]], [[[11.22, 64.57], [11.19, 64.6], [11.04, 64.6], [11.04, 64.63], [11.09, 64.65], [11.27, 64.59], [11.31, 64.54], [11.45, 64.51], [11.42, 64.47], [11.28, 64.51], [11.18, 64.51], [11.14, 64.57], [11.22, 64.57]]], [[[11.37, 64.63], [11.48, 64.56], [11.39, 64.55], [11.35, 64.59], [11.37, 64.63]]], [[[11.17, 64.64], [11.17, 64.66], [11.3, 64.69], [11.36, 64.67], [11.31, 64.6], [11.25, 64.64], [11.17, 64.64]]], [[[11.27, 64.89], [11.13, 64.84], [11.05, 64.85], [11.09, 64.9], [10.83, 64.85], [11.09, 64.95], [11.27, 64.89]]], [[[11.03, 64.99], [11.12, 64.97], [10.82, 64.87], [10.71, 64.86], [10.77, 64.92], [11.03, 64.99]]], [[[10.8, 64.94], [10.79, 64.98], [10.73, 64.96], [10.78, 64.99], [10.96, 64.99], [10.8, 64.94]]], [[[11.66, 65.06], [11.52, 65.06], [11.58, 65.11], [11.78, 65.12], [11.66, 65.04], [11.66, 65.06]]], [[[12.12, 65.13], [12.09, 65.14], [12.1, 65.18], [12.19, 65.21], [12.27, 65.16], [12.22, 65.12], [12.31, 65.11], [12.16, 65.06], [12.05, 65.07], [11.99, 65.09], [12.12, 65.13]]], [[[12.25, 65.28], [12.05, 65.22], [12.12, 65.3], [12.08, 65.31], [12.12, 65.36], [12.21, 65.38], [12.16, 65.4], [12.33, 65.47], [12.31, 65.49], [12.2, 65.47], [12.23, 65.49], [12.2, 65.49], [12.24, 65.53], [12.22, 65.55], [12.27, 65.58], [12.51, 65.4], [12.34, 65.33], [12.21, 65.32], [12.25, 65.28]]], [[[11.76, 65.62], [11.82, 65.69], [12.0, 65.7], [11.96, 65.67], [11.97, 65.63], [11.92, 65.59], [11.76, 65.62]]], [[[12.48, 65.9], [12.37, 65.89], [12.49, 65.99], [12.6, 66.02], [12.65, 66.02], [12.62, 65.97], [12.8, 66.02], [12.9, 66.02], [12.43, 65.87], [12.48, 65.9]]], [[[12.57, 66.16], [12.43, 66.17], [12.55, 66.22], [12.6, 66.21], [12.61, 66.16], [12.55, 66.13], [12.66, 66.1], [12.29, 66.02], [12.43, 66.09], [12.34, 66.08], [12.57, 66.16]]], [[[12.8, 66.31], [12.89, 66.26], [12.82, 66.22], [12.71, 66.24], [12.8, 66.31]]], [[[12.9, 66.36], [12.8, 66.38], [12.85, 66.41], [12.82, 66.44], [12.9, 66.46], [12.92, 66.43], [12.96, 66.46], [12.94, 66.39], [12.9, 66.42], [12.9, 66.36]]], [[[14.1, 67.06], [13.99, 67.08], [14.06, 67.13], [14.15, 67.11], [14.27, 67.17], [14.19, 67.08], [14.21, 67.01], [14.15, 67.01], [14.1, 67.06]]], [[[14.97, 67.97], [15.11, 68.0], [15.14, 67.96], [15.3, 67.94], [15.15, 67.91], [14.98, 67.91], [14.97, 67.97]]], [[[13.11, 68.03], [13.12, 67.94], [12.98, 67.97], [12.96, 67.94], [13.05, 67.92], [13.01, 67.88], [12.79, 67.81], [12.98, 68.04], [13.06, 68.07], [13.05, 68.1], [13.16, 68.09], [13.1, 68.06], [13.14, 68.05], [13.12, 68.04], [13.11, 68.03]]], [[[15.18, 67.97], [15.16, 68.0], [15.23, 68.04], [15.29, 67.98], [15.18, 67.97]]], [[[15.48, 68.01], [15.57, 68.03], [15.79, 68.03], [15.86, 68.03], [15.93, 68.0], [15.48, 68.01]]], [[[13.24, 67.99], [13.22, 68.04], [13.17, 68.01], [13.16, 68.04], [13.26, 68.1], [13.33, 68.06], [13.34, 68.09], [13.28, 68.13], [13.3, 68.15], [13.44, 68.13], [13.37, 68.01], [13.33, 68.03], [13.24, 67.99]]], [[[13.77, 68.16], [13.85, 68.12], [13.77, 68.1], [13.72, 68.12], [13.7, 68.07], [13.64, 68.07], [13.59, 68.12], [13.54, 68.1], [13.56, 68.08], [13.53, 68.04], [13.46, 68.07], [13.59, 68.16], [13.48, 68.13], [13.51, 68.16], [13.48, 68.17], [13.53, 68.17], [13.48, 68.19], [13.62, 68.23], [13.5, 68.24], [13.64, 68.29], [13.79, 68.27], [13.87, 68.33], [13.98, 68.34], [14.01, 68.29], [13.97, 68.27], [14.09, 68.28], [14.16, 68.26], [14.03, 68.18], [13.77, 68.16]]], [[[14.89, 68.3], [14.95, 68.28], [14.87, 68.22], [14.8, 68.25], [14.89, 68.3]]], [[[14.24, 68.31], [14.27, 68.28], [14.2, 68.25], [14.15, 68.3], [14.04, 68.31], [14.12, 68.34], [14.24, 68.31]]], [[[14.69, 68.29], [14.63, 68.27], [14.67, 68.25], [14.61, 68.22], [14.2, 68.15], [14.22, 68.18], [14.2, 68.2], [14.36, 68.24], [14.25, 68.25], [14.33, 68.26], [14.3, 68.31], [14.36, 68.32], [14.43, 68.28], [14.44, 68.32], [14.5, 68.31], [14.38, 68.37], [14.59, 68.37], [14.54, 68.41], [14.65, 68.43], [14.71, 68.38], [14.71, 68.42], [14.76, 68.43], [14.82, 68.41], [14.75, 68.36], [14.78, 68.35], [14.88, 68.39], [14.9, 68.43], [15.17, 68.45], [15.03, 68.36], [15.0, 68.38], [14.95, 68.35], [14.98, 68.34], [14.89, 68.3], [14.76, 68.26], [14.72, 68.26], [14.77, 68.32], [14.73, 68.34], [14.69, 68.29]]], [[[16.09, 68.4], [16.17, 68.43], [16.12, 68.43], [16.14, 68.47], [16.22, 68.52], [16.36, 68.53], [16.47, 68.47], [16.37, 68.45], [16.4, 68.41], [16.09, 68.4]]], [[[14.89, 68.49], [14.72, 68.49], [14.6, 68.56], [14.67, 68.59], [15.0, 68.54], [14.89, 68.49]]], [[[16.48, 68.55], [16.11, 68.54], [16.05, 68.46], [15.9, 68.37], [15.88, 68.37], [15.87, 68.5], [15.85, 68.43], [15.77, 68.43], [15.82, 68.39], [15.75, 68.43], [15.73, 68.37], [15.66, 68.37], [15.71, 68.36], [15.62, 68.3], [15.53, 68.34], [15.38, 68.33], [15.32, 68.35], [15.61, 68.47], [15.54, 68.51], [15.55, 68.48], [15.44, 68.42], [15.21, 68.37], [15.19, 68.35], [15.23, 68.34], [15.09, 68.27], [14.99, 68.27], [15.01, 68.31], [15.19, 68.43], [15.36, 68.46], [15.24, 68.47], [15.34, 68.49], [15.18, 68.52], [15.22, 68.56], [15.39, 68.58], [15.45, 68.56], [15.39, 68.61], [15.45, 68.6], [15.44, 68.62], [15.63, 68.61], [15.5, 68.64], [15.44, 68.68], [15.44, 68.72], [15.6, 68.74], [15.48, 68.75], [15.45, 68.81], [15.64, 68.82], [15.56, 68.84], [15.55, 68.87], [15.62, 68.89], [15.6, 68.91], [15.68, 68.96], [15.91, 68.96], [15.92, 68.89], [15.87, 68.79], [15.76, 68.74], [15.96, 68.79], [15.99, 68.76], [15.93, 68.68], [15.77, 68.63], [15.78, 68.56], [15.74, 68.53], [15.8, 68.55], [15.82, 68.61], [15.86, 68.63], [16.01, 68.68], [16.08, 68.64], [16.03, 68.71], [16.21, 68.74], [16.09, 68.8], [16.1, 68.83], [16.21, 68.86], [16.28, 68.84], [16.25, 68.9], [16.44, 68.85], [16.46, 68.82], [16.56, 68.82], [16.49, 68.79], [16.55, 68.78], [16.53, 68.72], [16.58, 68.71], [16.53, 68.68], [16.56, 68.66], [16.49, 68.61], [16.48, 68.55]]], [[[17.02, 68.86], [17.15, 68.77], [16.82, 68.74], [17.02, 68.86]]], [[[14.55, 68.8], [14.57, 68.75], [14.62, 68.74], [14.59, 68.75], [14.64, 68.79], [14.61, 68.81], [14.63, 68.83], [14.69, 68.82], [14.69, 68.76], [14.84, 68.8], [14.91, 68.76], [14.95, 68.82], [14.9, 68.85], [14.95, 68.87], [15.01, 68.79], [15.05, 68.85], [15.16, 68.82], [15.01, 68.96], [15.12, 69.02], [15.17, 68.99], [15.15, 68.96], [15.24, 68.91], [15.19, 68.89], [15.3, 68.91], [15.24, 68.82], [15.38, 68.85], [15.35, 68.8], [15.27, 68.8], [15.3, 68.78], [15.27, 68.76], [15.39, 68.73], [15.4, 68.69], [15.06, 68.58], [14.87, 68.58], [14.81, 68.62], [14.83, 68.64], [15.17, 68.7], [15.15, 68.76], [15.03, 68.77], [14.99, 68.76], [15.07, 68.75], [14.99, 68.7], [14.96, 68.73], [14.9, 68.68], [14.83, 68.67], [14.82, 68.71], [14.75, 68.67], [14.68, 68.71], [14.62, 68.63], [14.44, 68.61], [14.41, 68.64], [14.43, 68.67], [14.37, 68.69], [14.54, 68.74], [14.44, 68.76], [14.55, 68.8]]], [[[17.08, 68.91], [17.26, 68.86], [17.28, 68.86], [17.21, 68.91], [17.32, 68.92], [17.44, 68.87], [17.22, 68.79], [17.08, 68.91]]], [[[14.99, 68.88], [14.84, 68.89], [14.87, 68.93], [14.96, 68.93], [14.99, 68.88]]], [[[16.57, 68.97], [16.6, 68.93], [16.57, 68.89], [16.48, 68.89], [16.26, 68.97], [16.36, 68.99], [16.57, 68.97]]], [[[17.35, 69.0], [17.35, 69.03], [17.42, 69.08], [17.57, 69.09], [17.42, 69.0], [17.35, 69.0]]], [[[15.61, 69.13], [15.79, 69.16], [15.86, 69.25], [16.1, 69.32], [16.15, 69.29], [16.06, 69.14], [15.76, 69.01], [15.63, 68.99], [15.53, 69.01], [15.56, 68.95], [15.5, 68.9], [15.43, 68.88], [15.43, 68.98], [15.61, 69.13]]], [[[17.97, 69.26], [17.88, 69.24], [18.01, 69.2], [17.61, 69.15], [17.49, 69.15], [17.53, 69.2], [17.47, 69.2], [17.19, 69.08], [17.16, 69.05], [17.21, 69.04], [17.13, 69.01], [17.04, 69.02], [17.14, 69.07], [17.11, 69.08], [16.82, 69.05], [16.77, 69.09], [16.82, 69.12], [17.06, 69.13], [17.06, 69.16], [17.17, 69.2], [16.9, 69.19], [16.92, 69.22], [17.09, 69.23], [17.15, 69.26], [17.11, 69.25], [17.09, 69.29], [17.04, 69.27], [16.98, 69.28], [17.01, 69.3], [17.13, 69.31], [17.04, 69.35], [17.11, 69.35], [17.08, 69.36], [16.88, 69.36], [16.93, 69.39], [17.28, 69.39], [17.4, 69.37], [17.28, 69.41], [17.5, 69.43], [17.24, 69.45], [17.19, 69.5], [17.32, 69.46], [17.3, 69.48], [17.39, 69.48], [17.3, 69.52], [17.34, 69.54], [17.65, 69.46], [17.47, 69.55], [17.47, 69.6], [17.66, 69.51], [17.69, 69.52], [17.66, 69.6], [17.75, 69.54], [17.86, 69.59], [17.89, 69.54], [17.82, 69.47], [17.84, 69.45], [17.94, 69.52], [18.05, 69.5], [17.98, 69.48], [17.98, 69.45], [17.94, 69.43], [18.0, 69.41], [18.02, 69.44], [18.07, 69.44], [18.1, 69.37], [17.92, 69.33], [17.97, 69.26]]], [[[18.84, 69.6], [18.73, 69.57], [18.63, 69.58], [18.26, 69.53], [18.0, 69.59], [18.03, 69.63], [18.24, 69.63], [18.29, 69.59], [18.4, 69.64], [18.29, 69.64], [18.19, 69.71], [18.21, 69.71], [18.63, 69.7], [18.35, 69.73], [18.33, 69.77], [18.38, 69.8], [18.5, 69.75], [18.56, 69.8], [18.65, 69.8], [18.66, 69.71], [18.76, 69.69], [18.74, 69.71], [18.79, 69.78], [18.67, 69.85], [18.68, 69.89], [18.82, 69.89], [18.86, 69.87], [18.84, 69.85], [18.99, 69.83], [19.06, 69.79], [19.03, 69.74], [18.8, 69.68], [18.77, 69.65], [18.84, 69.6]]], [[[18.7, 69.98], [18.66, 70.03], [18.97, 70.08], [18.7, 69.98]]], [[[20.71, 69.91], [20.72, 69.84], [20.66, 69.8], [20.55, 69.8], [20.52, 69.84], [20.56, 69.88], [20.71, 69.91]]], [[[19.77, 70.0], [19.86, 69.97], [19.72, 69.86], [19.43, 69.84], [19.55, 69.93], [19.77, 70.0]]], [[[19.37, 69.82], [19.12, 69.79], [18.73, 69.95], [18.88, 69.95], [18.93, 69.97], [18.84, 69.98], [18.84, 70.02], [19.03, 70.04], [19.07, 70.02], [19.12, 70.03], [19.06, 70.08], [19.21, 70.1], [19.23, 70.07], [19.32, 70.08], [19.29, 70.03], [19.39, 69.99], [19.54, 70.06], [19.57, 70.05], [19.58, 69.99], [19.64, 70.02], [19.68, 70.01], [19.65, 69.97], [19.54, 69.95], [19.37, 69.82]]], [[[19.36, 70.11], [19.33, 70.13], [19.46, 70.15], [19.57, 70.11], [19.36, 70.11]]], [[[20.59, 70.05], [20.6, 70.1], [20.58, 70.11], [20.51, 70.06], [20.41, 70.07], [20.4, 70.15], [20.55, 70.23], [20.67, 70.06], [20.59, 70.05]]], [[[19.7, 70.18], [19.8, 70.2], [19.82, 70.17], [19.9, 70.21], [19.94, 70.2], [19.93, 70.18], [19.94, 70.16], [19.95, 70.16], [19.96, 70.15], [20.15, 70.11], [19.98, 70.06], [19.82, 70.06], [19.75, 70.09], [19.7, 70.18]]], [[[15.85, 68.04], [15.9, 68.07], [15.88, 68.07], [15.79, 68.03], [15.6, 68.04], [15.55, 68.07], [15.38, 68.02], [15.44, 68.01], [15.4, 67.99], [15.28, 68.04], [15.46, 68.12], [15.51, 68.13], [15.53, 68.09], [15.63, 68.13], [15.64, 68.17], [15.73, 68.14], [15.7, 68.13], [15.74, 68.1], [15.62, 68.09], [15.63, 68.05], [15.84, 68.1], [15.93, 68.13], [15.87, 68.19], [15.94, 68.19], [15.95, 68.24], [15.98, 68.25], [16.04, 68.24], [16.06, 68.2], [16.03, 68.18], [16.04, 68.16], [16.1, 68.16], [16.07, 68.11], [16.08, 68.06], [16.04, 68.03], [16.06, 68.02], [15.85, 68.04]]]]}},
    {"type": "Feature", "properties": {"name": "Swedes and Geats: Svealand and G\u00f6taland, with \u00c5land, Gotland and \u00d6land", "legend": "Viking homelands", "stroke": "#6b4f3a", "stroke-width": 0.8, "fill": "#6b4f3a", "fill-opacity": 0.3}, "geometry": {"type": "MultiPolygon", "coordinates": [[[[16.96, 57.06], [16.9, 57.04], [16.93, 57.02], [16.87, 56.97], [16.88, 56.92], [16.84, 56.84], [16.77, 56.8], [16.68, 56.59], [16.64, 56.56], [16.57, 56.35], [16.49, 56.24], [16.43, 56.22], [16.39, 56.46], [16.42, 56.59], [16.62, 56.87], [16.73, 56.9], [16.89, 57.12], [16.91, 57.2], [16.96, 57.23], [16.97, 57.3], [17.04, 57.35], [17.1, 57.35], [17.12, 57.32], [17.04, 57.27], [17.07, 57.23], [16.96, 57.06]]], [[[18.81, 57.73], [18.76, 57.62], [18.81, 57.61], [18.76, 57.51], [18.8, 57.47], [18.79, 57.45], [18.91, 57.44], [18.93, 57.39], [18.8, 57.38], [18.68, 57.31], [18.67, 57.28], [18.71, 57.27], [18.71, 57.24], [18.41, 57.14], [18.39, 57.13], [18.45, 57.13], [18.36, 57.1], [18.34, 57.03], [18.4, 57.0], [18.34, 57.0], [18.31, 56.95], [18.14, 56.92], [18.29, 57.09], [18.2, 57.07], [18.23, 57.13], [18.19, 57.14], [18.16, 57.23], [18.1, 57.26], [18.18, 57.38], [18.11, 57.49], [18.13, 57.55], [18.33, 57.67], [18.46, 57.8], [18.61, 57.84], [18.7, 57.92], [18.76, 57.91], [18.8, 57.83], [18.85, 57.89], [18.84, 57.91], [18.91, 57.92], [18.92, 57.89], [19.01, 57.91], [19.09, 57.83], [18.99, 57.81], [18.98, 57.77], [18.95, 57.78], [18.94, 57.73], [18.81, 57.73]]], [[[17.62, 58.96], [17.66, 59.07], [17.71, 58.99], [17.69, 58.9], [17.62, 58.96]]], [[[18.36, 59.02], [18.35, 59.06], [18.48, 59.12], [18.49, 59.09], [18.41, 59.01], [18.36, 59.02]]], [[[18.43, 59.22], [18.42, 59.21], [18.43, 59.2], [18.31, 59.23], [18.41, 59.19], [18.39, 59.17], [18.43, 59.17], [18.42, 59.14], [18.26, 59.1], [18.22, 59.12], [18.01, 59.04], [17.96, 58.92], [17.9, 58.92], [17.89, 58.86], [17.86, 58.92], [17.77, 58.96], [17.8, 58.91], [17.77, 58.89], [17.74, 58.98], [17.77, 59.12], [17.73, 59.11], [17.71, 59.05], [17.67, 59.08], [17.69, 59.13], [17.66, 59.17], [17.67, 59.13], [17.61, 59.09], [17.63, 59.02], [17.58, 58.96], [17.63, 58.92], [17.54, 58.9], [17.59, 58.86], [17.45, 58.9], [17.47, 58.87], [17.45, 58.82], [17.49, 58.8], [17.34, 58.81], [17.37, 58.78], [17.36, 58.75], [17.28, 58.73], [17.03, 58.75], [17.08, 58.74], [17.06, 58.71], [17.15, 58.7], [17.09, 58.66], [16.97, 58.69], [16.95, 58.67], [17.04, 58.64], [16.92, 58.63], [16.23, 58.67], [16.25, 58.63], [16.18, 58.63], [16.29, 58.62], [16.33, 58.64], [16.39, 58.59], [16.44, 58.65], [16.79, 58.61], [16.79, 58.57], [16.83, 58.53], [16.94, 58.49], [16.75, 58.43], [16.44, 58.49], [16.41, 58.48], [16.71, 58.41], [16.71, 58.36], [16.77, 58.37], [16.78, 58.34], [16.63, 58.35], [16.7, 58.3], [16.8, 58.32], [16.71, 58.28], [16.8, 58.24], [16.82, 58.21], [16.78, 58.13], [16.62, 58.2], [16.74, 58.08], [16.69, 58.06], [16.75, 58.02], [16.7, 58.0], [16.64, 58.04], [16.64, 58.01], [16.71, 57.96], [16.74, 57.97], [16.78, 57.92], [16.73, 57.93], [16.76, 57.88], [16.68, 57.92], [16.67, 57.89], [16.61, 57.89], [16.6, 57.93], [16.64, 57.92], [16.5, 57.99], [16.59, 57.94], [16.56, 57.89], [16.48, 57.92], [16.46, 57.89], [16.7, 57.74], [16.42, 57.89], [16.71, 57.7], [16.58, 57.71], [16.62, 57.67], [16.58, 57.66], [16.63, 57.63], [16.56, 57.59], [16.56, 57.63], [16.52, 57.63], [16.54, 57.57], [16.51, 57.57], [16.63, 57.56], [16.69, 57.47], [16.63, 57.44], [16.67, 57.42], [16.63, 57.38], [16.55, 57.38], [16.56, 57.32], [16.47, 57.28], [16.49, 57.24], [16.47, 57.18], [16.55, 57.11], [16.58, 57.04], [16.44, 57.05], [16.47, 57.03], [16.43, 57.0], [16.47, 56.95], [16.41, 56.8], [16.47, 56.78], [16.36, 56.76], [16.37, 56.66], [16.25, 56.64], [16.21, 56.54], [16.1, 56.42], [16.0, 56.22], [15.9, 56.45], [15.0, 56.55], [14.2, 56.45], [13.5, 56.5], [13.3, 57.0], [12.6, 57.4], [12.0, 57.6], [11.9, 57.72], [12.3, 58.5], [11.8, 59.2], [12.2, 60.0], [12.4, 61.0], [14.0, 61.6], [16.5, 62.0], [17.45, 62.0], [17.39, 61.99], [17.35, 61.95], [17.36, 61.89], [17.34, 61.82], [17.41, 61.82], [17.37, 61.8], [17.4, 61.72], [17.51, 61.71], [17.5, 61.64], [17.43, 61.64], [17.33, 61.72], [17.35, 61.68], [17.27, 61.72], [17.14, 61.73], [17.27, 61.69], [17.17, 61.66], [17.19, 61.64], [17.1, 61.64], [17.25, 61.61], [17.08, 61.62], [17.15, 61.6], [17.06, 61.58], [17.19, 61.56], [17.08, 61.55], [17.17, 61.53], [17.12, 61.51], [17.17, 61.5], [17.17, 61.44], [17.22, 61.45], [17.17, 61.42], [17.14, 61.44], [17.1, 61.4], [17.28, 61.31], [17.15, 61.33], [17.25, 61.29], [17.21, 61.29], [17.1, 61.32], [17.21, 61.24], [17.15, 61.2], [17.19, 61.19], [17.16, 61.15], [17.18, 61.12], [17.15, 61.11], [17.2, 61.1], [17.16, 61.02], [17.25, 61.01], [17.17, 60.99], [17.16, 60.95], [17.25, 60.9], [17.28, 60.84], [17.26, 60.82], [17.34, 60.77], [17.19, 60.69], [17.36, 60.65], [17.32, 60.64], [17.34, 60.62], [17.57, 60.65], [17.66, 60.61], [17.6, 60.58], [17.67, 60.5], [17.74, 60.5], [17.73, 60.53], [17.82, 60.59], [17.97, 60.59], [18.0, 60.55], [17.97, 60.51], [18.26, 60.38], [18.21, 60.36], [18.23, 60.33], [18.3, 60.36], [18.43, 60.35], [18.47, 60.29], [18.43, 60.29], [18.6, 60.24], [18.4, 60.26], [18.45, 60.21], [18.39, 60.23], [18.42, 60.19], [18.51, 60.16], [18.55, 60.17], [18.58, 60.07], [18.58, 60.14], [18.65, 60.15], [18.74, 60.11], [18.75, 60.05], [18.8, 60.0], [18.75, 60.08], [18.82, 60.12], [18.9, 59.95], [19.03, 59.88], [19.07, 59.9], [19.07, 59.83], [19.03, 59.84], [18.89, 59.93], [18.93, 59.89], [18.92, 59.85], [18.73, 59.77], [19.09, 59.77], [19.06, 59.74], [18.98, 59.72], [18.91, 59.75], [18.71, 59.67], [18.69, 59.65], [18.74, 59.64], [18.66, 59.64], [18.69, 59.61], [18.64, 59.58], [18.38, 59.48], [18.27, 59.48], [18.3, 59.46], [18.25, 59.45], [18.29, 59.41], [18.34, 59.41], [18.31, 59.4], [18.19, 59.41], [18.16, 59.42], [18.21, 59.42], [18.18, 59.46], [18.11, 59.45], [18.07, 59.4], [18.01, 59.41], [18.12, 59.36], [18.15, 59.34], [18.1, 59.33], [18.22, 59.32], [18.25, 59.36], [18.32, 59.38], [18.47, 59.34], [18.45, 59.4], [18.5, 59.4], [18.43, 59.44], [18.48, 59.43], [18.61, 59.37], [18.54, 59.37], [18.65, 59.33], [18.52, 59.3], [18.29, 59.32], [18.32, 59.28], [18.28, 59.26], [18.41, 59.22], [18.43, 59.22]]], [[[18.52, 59.23], [18.34, 59.3], [18.52, 59.27], [18.53, 59.24], [18.58, 59.24], [18.52, 59.23]]], [[[18.58, 59.43], [18.55, 59.42], [18.51, 59.48], [18.56, 59.48], [18.58, 59.5], [18.55, 59.51], [18.61, 59.55], [18.74, 59.54], [18.58, 59.46], [18.58, 59.43]]], [[[18.42, 60.49], [18.47, 60.43], [18.43, 60.43], [18.49, 60.36], [18.53, 60.37], [18.57, 60.31], [18.4, 60.37], [18.38, 60.5], [18.42, 60.49]]], [[[19.13, 57.85], [19.04, 57.91], [19.1, 57.98], [19.22, 57.99], [19.34, 57.96], [19.15, 57.9], [19.13, 57.85]]], [[[18.95, 59.86], [19.0, 59.84], [18.99, 59.79], [18.89, 59.79], [18.95, 59.86]]], [[[20.34, 60.02], [20.45, 60.0], [20.31, 59.95], [20.28, 59.98], [20.34, 60.02]]], [[[20.03, 60.04], [20.03, 60.06], [20.16, 60.09], [20.23, 60.01], [20.18, 59.97], [20.18, 59.99], [20.03, 60.04]]], [[[20.26, 60.11], [20.26, 60.15], [20.3, 60.12], [20.28, 60.07], [20.2, 60.09], [20.22, 60.15], [20.26, 60.11]]], [[[19.57, 60.13], [19.51, 60.18], [19.59, 60.26], [19.67, 60.17], [19.6, 60.18], [19.57, 60.13]]], [[[20.09, 60.18], [20.1, 60.22], [20.06, 60.19], [20.02, 60.26], [20.06, 60.31], [20.02, 60.31], [20.02, 60.28], [19.98, 60.28], [20.03, 60.22], [20.02, 60.18], [19.91, 60.22], [20.01, 60.16], [20.04, 60.18], [20.04, 60.09], [19.97, 60.09], [19.95, 60.05], [19.91, 60.1], [19.76, 60.07], [19.65, 60.27], [19.69, 60.24], [19.77, 60.29], [19.75, 60.31], [19.8, 60.3], [19.77, 60.25], [19.81, 60.19], [19.82, 60.23], [19.85, 60.22], [19.89, 60.31], [19.91, 60.27], [19.93, 60.3], [19.89, 60.34], [19.86, 60.31], [19.78, 60.36], [19.84, 60.4], [19.91, 60.4], [19.93, 60.36], [20.04, 60.33], [20.02, 60.36], [20.09, 60.36], [20.19, 60.31], [20.18, 60.29], [20.28, 60.28], [20.21, 60.22], [20.23, 60.2], [20.09, 60.18]]]]}}
  ]
}
