{
  "type": "FeatureCollection",
  "features": [
    {
      "type": "Feature",
      "properties": {"name": "Dnieper route: Birka - Novgorod - Kiev - Constantinople", "legend": "Trade routes", "stroke": "#ff9f1c", "stroke-width": 2},
      "geometry": {
        "type": "LineString",
        "coordinates": [
          [17.54, 59.34], [18.9, 59.45], [19.6, 59.85], [21.3, 59.65], [22.8, 59.7],
          [24.5, 59.75], [26.5, 59.95], [28.8, 60.0], [29.5, 60.05], [29.72, 59.97],
          [30.2, 59.93], [30.6, 59.9],
          [31.05, 59.94], [31.7, 60.1], [32.55, 60.12], [32.3, 60.0], [32.0, 59.45],
          [31.28, 58.52], [31.3, 58.27], [31.35, 57.99], [30.9, 57.2], [30.53, 56.34],
          [31.0, 55.6], [31.88, 54.78], [30.4, 54.5], [30.33, 53.9], [30.4, 52.36],
          [30.65, 51.7], [30.52, 50.45], [31.46, 49.75], [33.4, 49.07], [35.04, 48.46],
          [35.1, 47.85], [34.4, 47.57], [32.6, 46.63], [31.9, 46.55], [31.42, 46.6],
          [30.9, 45.9], [30.0, 45.0], [29.2, 44.0], [28.3, 43.0], [28.6, 42.0],
          [29.15, 41.25], [28.98, 41.01]
        ]
      }
    },
    {
      "type": "Feature",
      "properties": {"name": "Volga route: Staraya Ladoga - Bulghar - Itil - Caspian - Baghdad", "legend": "Trade routes", "stroke": "#ff9f1c", "stroke-width": 2},
      "geometry": {
        "type": "LineString",
        "coordinates": [
          [32.3, 60.0], [32.55, 60.12], [32.9, 60.5], [33.55, 60.73], [34.17, 60.91],
          [35.5, 61.0], [36.45, 61.0], [37.78, 60.03], [37.9, 59.13], [38.83, 58.05],
          [39.87, 57.63], [40.93, 57.77], [44.0, 56.33], [47.25, 56.13], [49.1, 55.79],
          [49.06, 54.98], [50.1, 53.2], [48.47, 53.15], [46.03, 51.53], [45.4, 50.08],
          [44.5, 48.7], [45.9, 48.1], [47.25, 47.25], [48.03, 46.35], [48.7, 45.7],
          [49.8, 44.3], [51.0, 42.0], [52.4, 39.0], [52.6, 38.0], [53.9, 36.95],
          [54.43, 36.84], [51.43, 35.59], [48.52, 34.8], [44.37, 33.31]
        ]
      }
    },
    {
      "type": "Feature",
      "properties": {"name": "Baltic route: Birka - Gotland - Hedeby", "legend": "Trade routes", "stroke": "#ff9f1c", "stroke-width": 2},
      "geometry": {
        "type": "LineString",
        "coordinates": [
          [17.54, 59.34], [18.9, 59.2], [18.3, 58.3], [18.25, 57.65], [17.8, 57.5], [17.0, 56.3],
          [16.4, 56.0], [14.9, 55.4], [12.8, 54.75], [12.5, 54.62], [12.1, 54.45], [11.2, 54.6],
          [10.4, 54.55], [10.03, 54.67], [9.57, 54.49]
        ]
      }
    },
    {
      "type": "Feature",
      "properties": {"name": "Kaupang - Hedeby", "legend": "Trade routes", "stroke": "#ff9f1c", "stroke-width": 2},
      "geometry": {
        "type": "LineString",
        "coordinates": [
          [10.03, 59.03], [10.3, 58.6], [10.9, 57.9], [11.3, 57.2], [11.4, 56.4],
          [10.95, 56.05], [10.9, 55.75], [10.95, 55.5], [10.95, 55.3], [11.0, 55.0],
          [10.95, 54.8], [10.7, 54.6], [10.4, 54.6], [10.03, 54.67], [9.57, 54.49]
        ]
      }
    },
    {
      "type": "Feature",
      "properties": {"name": "Hedeby - Dorestad (via the Treene portage and the Frisian coast)", "legend": "Trade routes", "stroke": "#ff9f1c", "stroke-width": 2},
      "geometry": {
        "type": "LineString",
        "coordinates": [
          [9.57, 54.49], [9.34, 54.46], [8.95, 54.31], [8.4, 54.2], [7.5, 53.9],
          [6.5, 53.65], [5.05, 53.38], [5.3, 52.9], [5.2, 52.4], [5.1, 52.1],
          [5.34, 51.97]
        ]
      }
    },
    {
      "type": "Feature",
      "properties": {"name": "Ribe - York", "legend": "Trade routes", "stroke": "#ff9f1c", "stroke-width": 2},
      "geometry": {
        "type": "LineString",
        "coordinates": [
          [8.76, 55.33], [8.5, 55.25], [6.0, 55.0], [2.0, 54.4], [0.15, 53.6],
          [-0.6, 53.72], [-1.08, 53.96]
        ]
      }
    }
  ]
}
