{
  "type": "FeatureCollection",
  "features": [
    {"type": "Feature", "properties": {"name": "Danelaw and the Kingdom of York (c. 878-954)", "stroke": "#2a9d4b", "stroke-width": 0.8, "fill": "#2a9d4b", "fill-opacity": 0.35}, "geometry": {"type": "MultiPolygon", "coordinates": [[[[-1.15, 54.61], [-1.13, 54.64], [-0.56, 54.48], [-0.45, 54.37], [-0.37, 54.25], [-0.28, 54.22], [-0.23, 54.16], [-0.08, 54.11], [-0.16, 54.08], [-0.22, 54.02], [-0.15, 53.9], [0.13, 53.64], [0.15, 53.61], [0.13, 53.57], [0.11, 53.56], [0.12, 53.62], [0.03, 53.65], [-0.09, 53.63], [-0.26, 53.74], [-0.54, 53.71], [-0.64, 53.73], [-0.73, 53.7], [-0.62, 53.71], [-0.53, 53.68], [-0.28, 53.71], [-0.19, 53.62], [0.15, 53.48], [0.22, 53.42], [0.34, 53.23], [0.36, 53.15], [0.33, 53.09], [0.16, 53.01], [0.01, 52.89], [0.11, 52.89], [0.25, 52.8], [0.33, 52.8], [0.38, 52.77], [0.52, 52.96], [0.68, 52.99], [1.01, 52.96], [0.97, 52.97], [1.27, 52.93], [1.67, 52.76], [1.75, 52.63], [1.77, 52.49], [1.63, 52.27], [1.59, 52.09], [1.47, 52.06], [1.33, 51.94], [1.26, 51.99], [1.16, 52.03], [1.27, 51.96], [1.07, 51.95], [1.28, 51.95], [1.2, 51.88], [1.29, 51.88], [1.29, 51.86], [1.17, 51.79], [1.05, 51.78], [0.98, 51.84], [0.87, 51.75], [0.7, 51.72], [0.76, 51.69], [0.95, 51.73], [0.95, 51.68], [0.91, 51.62], [0.95, 51.62], [0.82, 51.54], [0.45, 51.49], [0.0, 51.5], [-0.02, 51.8], [-0.42, 51.9], [-0.47, 52.13], [-0.85, 52.06], [-1.2, 52.37], [-1.6, 52.6], [-2.7, 52.7], [-2.9, 53.2], [-2.6, 53.4], [-2.3, 53.8], [-2.2, 54.2], [-2.0, 54.5], [-1.5, 54.55], [-1.15, 54.61]]]]}},
    {"type": "Feature", "properties": {"name": "Kingdom of Dublin (841-1171)", "stroke": "#2a9d4b", "stroke-width": 0.8, "fill": "#2a9d4b", "fill-opacity": 0.35}, "geometry": {"type": "MultiPolygon", "coordinates": [[[[-6.05, 53.39], [-6.07, 53.37], [-6.13, 53.39], [-6.22, 53.35], [-6.19, 53.34], [-6.1, 53.29], [-6.1, 53.23], [-6.03, 53.11], [-6.04, 53.05], [-6.4, 53.05], [-6.65, 53.35], [-6.4, 53.65], [-6.23, 53.65], [-6.09, 53.58], [-6.07, 53.54], [-6.12, 53.47], [-6.19, 53.46], [-6.13, 53.44], [-6.12, 53.4], [-6.05, 53.39]]]]}},
    {"type": "Feature", "properties": {"name": "Norse Scotland, the Isles and Man (9th-13th c.)", "stroke": "#2a9d4b", "stroke-width": 0.8, "fill": "#2a9d4b", "fill-opacity": 0.35}, "geometry": {"type": "MultiPolygon", "coordinates": [[[[-6.31, 55.58], [-6.32, 55.63], [-6.24, 55.66], [-6.32, 55.73], [-6.25, 55.78], [-6.33, 55.78], [-6.49, 55.67], [-6.5, 55.72], [-6.45, 55.78], [-6.48, 55.79], [-6.45, 55.85], [-6.33, 55.89], [-6.31, 55.82], [-6.3, 55.87], [-6.13, 55.94], [-6.1, 55.8], [-6.05, 55.77], [-6.02, 55.68], [-6.31, 55.58]]], [[[-7.56, 56.96], [-7.44, 57.06], [-7.37, 56.98], [-7.48, 56.94], [-7.56, 56.96]]], [[[-6.33, 57.06], [-6.24, 57.01], [-6.3, 56.94], [-6.44, 57.0], [-6.33, 57.06]]], [[[-7.27, 57.22], [-7.26, 57.18], [-7.27, 57.15], [-7.31, 57.16], [-7.35, 57.15], [-7.22, 57.11], [-7.35, 57.1], [-7.41, 57.22], [-7.46, 57.24], [-7.39, 57.31], [-7.43, 57.39], [-7.36, 57.41], [-7.22, 57.34], [-7.39, 57.38], [-7.37, 57.36], [-7.2, 57.31], [-7.26, 57.24], [-7.35, 57.24], [-7.27, 57.22]]], [[[-6.61, 57.44], [-6.63, 57.5], [-6.56, 57.5], [-6.65, 57.55], [-6.62, 57.61], [-6.55, 57.55], [-6.42, 57.52], [-6.44, 57.49], [-6.4, 57.52], [-6.31, 57.46], [-6.39, 57.55], [-6.36, 57.59], [-6.4, 57.6], [-6.42, 57.65], [-6.31, 57.7], [-6.15, 57.59], [-6.13, 57.48], [-6.19, 57.39], [-6.12, 57.4], [-6.14, 57.37], [-6.1, 57.33], [-6.15, 57.31], [-6.1, 57.31], [-6.1, 57.13], [-6.11, 57.19], [-6.16, 57.2], [-6.32, 57.16], [-6.28, 57.2], [-6.35, 57.19], [-6.38, 57.22], [-6.35, 57.24], [-6.41, 57.24], [-6.48, 57.31], [-6.42, 57.33], [-6.31, 57.3], [-6.41, 57.35], [-6.46, 57.35], [-6.48, 57.4], [-6.52, 57.38], [-6.53, 57.42], [-6.58, 57.34], [-6.7, 57.36], [-6.78, 57.46], [-6.72, 57.46], [-6.75, 57.49], [-6.73, 57.51], [-6.61, 57.44]]], [[[-7.21, 57.42], [-7.32, 57.41], [-7.41, 57.45], [-7.37, 57.49], [-7.2, 57.46], [-7.26, 57.45], [-7.21, 57.42]]], [[[-7.15, 57.59], [-7.11, 57.59], [-7.15, 57.56], [-7.26, 57.57], [-7.31, 57.54], [-7.14, 57.55], [-7.16, 57.51], [-7.31, 57.51], [-7.35, 57.54], [-7.32, 57.55], [-7.54, 57.59], [-7.48, 57.66], [-7.39, 57.66], [-7.41, 57.65], [-7.4, 57.64], [-7.31, 57.69], [-7.33, 57.66], [-7.26, 57.65], [-7.28, 57.66], [-7.18, 57.69], [-7.19, 57.66], [-7.07, 57.63], [-7.1, 57.61], [-7.22, 57.64], [-7.15, 57.59]]], [[[-6.91, 57.87], [-6.96, 57.89], [-6.83, 57.9], [-6.87, 57.92], [-6.84, 57.94], [-7.11, 57.99], [-6.93, 58.05], [-7.06, 58.04], [-7.02, 58.08], [-7.08, 58.06], [-7.11, 58.1], [-7.11, 58.18], [-7.02, 58.19], [-7.05, 58.2], [-7.05, 58.23], [-6.91, 58.22], [-6.94, 58.21], [-6.86, 58.11], [-6.89, 58.17], [-6.87, 58.19], [-6.8, 58.2], [-6.74, 58.17], [-6.71, 58.19], [-6.82, 58.29], [-6.72, 58.34], [-6.56, 58.37], [-6.27, 58.51], [-6.21, 58.48], [-6.17, 58.42], [-6.22, 58.37], [-6.17, 58.35], [-6.37, 58.24], [-6.27, 58.22], [-6.15, 58.26], [-6.16, 58.22], [-6.23, 58.18], [-6.4, 58.21], [-6.37, 58.14], [-6.62, 58.09], [-6.41, 58.11], [-6.37, 58.06], [-6.4, 58.05], [-6.35, 58.04], [-6.42, 58.0], [-6.54, 58.02], [-6.46, 57.97], [-6.55, 57.94], [-6.56, 57.92], [-6.63, 57.96], [-6.62, 57.92], [-6.71, 58.0], [-6.59, 58.06], [-6.69, 58.06], [-6.76, 58.0], [-6.67, 57.93], [-6.7, 57.92], [-6.66, 57.88], [-6.79, 57.9], [-6.81, 57.88], [-6.74, 57.83], [-6.85, 57.83], [-6.87, 57.78], [-6.97, 57.73], [-7.08, 57.81], [-6.91, 57.87]]], [[[-4.71, 54.22], [-4.6, 54.28], [-4.53, 54.37], [-4.35, 54.41], [-4.38, 54.35], [-4.31, 54.29], [-4.4, 54.22], [-4.39, 54.19], [-4.61, 54.06], [-4.78, 54.07], [-4.71, 54.22]]], [[[-4.93, 58.22], [-4.98, 58.25], [-4.93, 58.26], [-5.05, 58.26], [-5.17, 58.35], [-5.14, 58.41], [-5.1, 58.41], [-5.11, 58.44], [-5.05, 58.45], [-5.0, 58.44], [-5.11, 58.51], [-5.03, 58.54], [-4.99, 58.63], [-4.84, 58.61], [-4.8, 58.56], [-4.78, 58.61], [-4.66, 58.56], [-4.76, 58.45], [-4.61, 58.52], [-4.58, 58.57], [-4.43, 58.55], [-4.5, 58.45], [-4.34, 58.54], [-4.23, 58.52], [-4.22, 58.55], [-4.08, 58.56], [-4.03, 58.6], [-3.9, 58.57], [-3.6, 58.63], [-3.36, 58.6], [-3.35, 58.62], [-3.41, 58.66], [-3.37, 58.68], [-3.34, 58.65], [-3.02, 58.64], [-3.13, 58.51], [-3.05, 58.47], [-3.13, 58.37], [-4.0, 57.94], [-4.08, 57.96], [-3.99, 57.91], [-4.01, 57.87], [-5.17, 58.26], [-4.93, 58.22]]], [[[-5.96, 55.8], [-6.03, 55.8], [-6.08, 55.83], [-6.08, 55.9], [-5.89, 55.98], [-6.0, 55.99], [-5.92, 56.06], [-5.75, 56.14], [-5.75, 56.06], [-5.96, 55.8]]], [[[-3.02, 58.81], [-2.97, 58.82], [-3.04, 58.83], [-2.88, 58.83], [-2.92, 58.81], [-2.92, 58.74], [-2.99, 58.76], [-3.02, 58.81]]], [[[-3.43, 58.88], [-3.34, 58.93], [-3.25, 58.9], [-3.17, 58.83], [-3.25, 58.79], [-3.3, 58.78], [-3.43, 58.88]]], [[[-2.98, 58.96], [-3.2, 58.92], [-3.24, 58.95], [-3.21, 59.01], [-3.23, 59.04], [-3.28, 59.01], [-3.27, 58.97], [-3.32, 58.96], [-3.37, 59.02], [-3.35, 59.1], [-3.28, 59.14], [-3.08, 59.13], [-2.99, 59.06], [-3.06, 59.05], [-3.12, 59.0], [-3.01, 59.02], [-2.88, 59.0], [-2.89, 58.98], [-2.78, 58.99], [-2.84, 58.95], [-2.79, 58.93], [-2.8, 58.96], [-2.71, 58.96], [-2.71, 58.93], [-2.82, 58.88], [-2.93, 58.9], [-2.98, 58.96]]], [[[-2.62, 59.12], [-2.67, 59.16], [-2.63, 59.16], [-2.51, 59.09], [-2.69, 59.09], [-2.62, 59.12]]], [[[-2.95, 59.18], [-3.0, 59.13], [-3.09, 59.14], [-3.12, 59.18], [-2.95, 59.18]]], [[[-2.73, 59.22], [-2.76, 59.19], [-2.73, 59.15], [-2.78, 59.14], [-2.83, 59.2], [-2.79, 59.2], [-2.79, 59.25], [-2.73, 59.22]]], [[[-2.58, 59.22], [-2.57, 59.24], [-2.6, 59.24], [-2.69, 59.19], [-2.6, 59.26], [-2.61, 59.29], [-2.52, 59.31], [-2.56, 59.27], [-2.4, 59.32], [-2.39, 59.29], [-2.46, 59.28], [-2.51, 59.23], [-2.52, 59.25], [-2.58, 59.22]]], [[[-2.99, 59.32], [-2.9, 59.3], [-2.83, 59.25], [-2.89, 59.23], [-2.87, 59.26], [-2.95, 59.29], [-3.01, 59.27], [-3.08, 59.33], [-2.95, 59.35], [-2.99, 59.32]]], [[[-1.08, 60.36], [-1.17, 60.35], [-1.08, 60.32], [-1.14, 60.29], [-1.09, 60.27], [-1.15, 60.25], [-1.19, 60.27], [-1.19, 60.25], [-1.22, 60.24], [-1.18, 60.23], [-1.2, 60.2], [-1.16, 60.22], [-1.19, 60.18], [-1.16, 60.19], [-1.12, 60.15], [-1.21, 60.11], [-1.16, 60.06], [-1.22, 60.04], [-1.2, 59.99], [-1.25, 60.0], [-1.27, 59.85], [-1.38, 59.91], [-1.32, 59.95], [-1.35, 59.98], [-1.32, 59.98], [-1.26, 60.12], [-1.29, 60.16], [-1.27, 60.19], [-1.31, 60.18], [-1.27, 60.25], [-1.33, 60.2], [-1.36, 60.24], [-1.41, 60.26], [-1.35, 60.21], [-1.4, 60.21], [-1.46, 60.16], [-1.53, 60.19], [-1.47, 60.22], [-1.5, 60.24], [-1.53, 60.21], [-1.62, 60.22], [-1.69, 60.29], [-1.48, 60.32], [-1.47, 60.28], [-1.42, 60.33], [-1.36, 60.29], [-1.34, 60.31], [-1.36, 60.32], [-1.34, 60.35], [-1.26, 60.36], [-1.4, 60.39], [-1.38, 60.42], [-1.44, 60.43], [-1.45, 60.49], [-1.48, 60.46], [-1.48, 60.49], [-1.61, 60.48], [-1.53, 60.56], [-1.46, 60.51], [-1.38, 60.51], [-1.48, 60.54], [-1.41, 60.58], [-1.42, 60.61], [-1.32, 60.59], [-1.3, 60.64], [-1.34, 60.49], [-1.3, 60.49], [-1.37, 60.4], [-1.23, 60.44], [-1.3, 60.47], [-1.22, 60.5], [-1.15, 60.43], [-1.22, 60.41], [-1.14, 60.39], [-1.03, 60.45], [-1.12, 60.38], [-1.07, 60.4], [-1.08, 60.36]]], [[[-0.94, 60.63], [-0.75, 60.6], [-0.79, 60.58], [-0.88, 60.57], [-0.94, 60.63]]], [[[-1.01, 60.58], [-1.04, 60.55], [-1.02, 60.5], [-1.15, 60.51], [-1.17, 60.65], [-1.1, 60.62], [-1.12, 60.66], [-1.1, 60.73], [-0.99, 60.73], [-0.98, 60.66], [-0.99, 60.64], [-1.06, 60.66], [-1.01, 60.62], [-1.06, 60.61], [-1.01, 60.58]]], [[[-0.94, 60.8], [-0.88, 60.85], [-0.86, 60.82], [-0.82, 60.85], [-0.76, 60.83], [-0.82, 60.76], [-0.8, 60.74], [-0.85, 60.72], [-0.84, 60.68], [-0.97, 60.69], [-0.94, 60.8]]]]}},
    {"type": "Feature", "properties": {"name": "Faroe Islands (c. 825)", "stroke": "#2a9d4b", "stroke-width": 0.8, "fill": "#2a9d4b", "fill-opacity": 0.35}, "geometry": {"type": "MultiPolygon", "coordinates": [[[[-6.89, 61.65], [-6.91, 61.63], [-6.87, 61.62], [-6.91, 61.6], [-6.72, 61.57], [-6.81, 61.55], [-6.72, 61.53], [-6.68, 61.48], [-6.78, 61.46], [-6.87, 61.5], [-6.95, 61.59], [-6.94, 61.63], [-6.89, 61.65]]], [[[-6.91, 61.91], [-6.67, 61.87], [-6.61, 61.82], [-6.66, 61.75], [-6.75, 61.82], [-6.85, 61.83], [-6.91, 61.91]]], [[[-7.22, 62.16], [-7.13, 62.13], [-7.04, 62.09], [-7.07, 62.05], [-7.2, 62.02], [-7.21, 62.06], [-7.24, 62.06], [-7.22, 62.03], [-7.38, 62.07], [-7.28, 62.07], [-7.43, 62.13], [-7.22, 62.16]]], [[[-7.2, 62.31], [-7.07, 62.29], [-7.0, 62.18], [-6.85, 62.14], [-6.9, 62.1], [-6.81, 62.1], [-6.78, 62.07], [-6.85, 62.05], [-6.72, 62.03], [-6.73, 61.99], [-6.7, 61.98], [-6.7, 61.94], [-6.86, 61.99], [-7.02, 62.11], [-7.13, 62.13], [-7.13, 62.16], [-7.23, 62.18], [-7.19, 62.24], [-7.2, 62.31]]], [[[-6.88, 62.31], [-6.93, 62.29], [-6.91, 62.24], [-6.91, 62.28], [-6.81, 62.29], [-6.82, 62.27], [-6.74, 62.26], [-6.78, 62.23], [-6.61, 62.2], [-6.72, 62.18], [-6.56, 62.14], [-6.67, 62.15], [-6.59, 62.11], [-6.65, 62.1], [-6.65, 62.06], [-6.69, 62.07], [-6.71, 62.14], [-6.75, 62.18], [-6.81, 62.19], [-6.73, 62.15], [-6.74, 62.1], [-6.85, 62.14], [-6.96, 62.19], [-7.07, 62.29], [-7.09, 62.31], [-6.88, 62.31]]], [[[-6.57, 62.35], [-6.54, 62.37], [-6.52, 62.32], [-6.49, 62.31], [-6.48, 62.3], [-6.39, 62.26], [-6.5, 62.25], [-6.42, 62.23], [-6.41, 62.19], [-6.54, 62.23], [-6.51, 62.17], [-6.57, 62.21], [-6.55, 62.31], [-6.57, 62.35]]], [[[-6.75, 62.36], [-6.64, 62.24], [-6.69, 62.25], [-6.79, 62.38], [-6.75, 62.36]]], [[[-6.59, 62.26], [-6.64, 62.28], [-6.68, 62.37], [-6.65, 62.37], [-6.59, 62.29], [-6.59, 62.26]]], [[[-6.45, 62.32], [-6.4, 62.3], [-6.49, 62.31], [-6.52, 62.35], [-6.53, 62.37], [-6.54, 62.37], [-6.56, 62.39], [-6.52, 62.4], [-6.45, 62.32]]]]}},
    {"type": "Feature", "properties": {"name": "Iceland (874)", "stroke": "#2a9d4b", "stroke-width": 0.8, "fill": "#2a9d4b", "fill-opacity": 0.35}, "geometry": {"type": "MultiPolygon", "coordinates": [[[[-15.18, 66.11], [-15.07, 66.1], [-15.06, 66.07], [-15.1, 66.06], [-15.08, 66.05], [-14.85, 66.04], [-14.7, 66.07], [-14.6, 65.95], [-14.65, 65.89], [-14.89, 65.76], [-14.79, 65.8], [-14.84, 65.74], [-14.81, 65.73], [-14.33, 65.78], [-14.4, 65.72], [-14.27, 65.67], [-14.36, 65.66], [-14.53, 65.55], [-14.56, 65.5], [-14.32, 65.65], [-14.19, 65.63], [-14.25, 65.67], [-14.03, 65.61], [-13.87, 65.62], [-13.87, 65.58], [-13.82, 65.57], [-13.79, 65.52], [-13.69, 65.56], [-13.61, 65.51], [-13.65, 65.46], [-13.64, 65.43], [-13.68, 65.41], [-13.67, 65.38], [-13.84, 65.36], [-13.73, 65.33], [-14.01, 65.28], [-13.69, 65.31], [-13.57, 65.26], [-13.65, 65.22], [-14.03, 65.2], [-13.63, 65.2], [-13.64, 65.16], [-13.75, 65.14], [-13.67, 65.14], [-13.65, 65.13], [-13.69, 65.12], [-13.63, 65.1], [-13.52, 65.17], [-13.51, 65.07], [-13.61, 65.04], [-13.59, 65.01], [-13.65, 64.99], [-13.8, 64.99], [-13.83, 65.03], [-14.03, 65.08], [-13.99, 65.06], [-14.23, 65.04], [-13.92, 65.01], [-13.7, 64.93], [-14.05, 64.93], [-13.85, 64.9], [-13.77, 64.85], [-13.97, 64.84], [-13.84, 64.8], [-14.01, 64.8], [-14.05, 64.78], [-13.99, 64.74], [-14.05, 64.72], [-14.31, 64.7], [-14.42, 64.79], [-14.46, 64.79], [-14.47, 64.76], [-14.38, 64.74], [-14.27, 64.65], [-14.49, 64.66], [-14.41, 64.61], [-14.58, 64.59], [-14.49, 64.55], [-14.35, 64.61], [-14.47, 64.53], [-14.54, 64.41], [-14.75, 64.38], [-14.57, 64.42], [-14.71, 64.43], [-14.95, 64.32], [-14.88, 64.28], [-14.93, 64.26], [-15.11, 64.3], [-15.23, 64.27], [-15.21, 64.3], [-15.25, 64.3], [-15.29, 64.33], [-15.28, 64.3], [-15.32, 64.3], [-15.37, 64.37], [-15.4, 64.38], [-15.36, 64.34], [-15.4, 64.34], [-15.37, 64.31], [-15.4, 64.27], [-15.69, 64.23], [-15.8, 64.19], [-15.7, 64.19], [-15.73, 64.18], [-15.99, 64.14], [-16.03, 64.13], [-15.98, 64.12], [-16.18, 64.04], [-16.31, 64.02], [-16.46, 63.92], [-16.61, 63.87], [-16.78, 63.86], [-16.75, 63.85], [-16.8, 63.8], [-16.89, 63.87], [-16.92, 63.81], [-16.93, 63.87], [-16.93, 63.8], [-16.97, 63.79], [-16.94, 63.9], [-16.97, 63.92], [-16.97, 63.87], [-17.03, 63.85], [-16.99, 63.81], [-17.01, 63.8], [-17.21, 63.82], [-17.56, 63.75], [-17.55, 63.79], [-17.6, 63.77], [-17.59, 63.75], [-17.72, 63.71], [-17.62, 63.75], [-17.71, 63.78], [-17.71, 63.75], [-17.82, 63.75], [-17.8, 63.74], [-17.97, 63.68], [-17.8, 63.67], [-17.87, 63.62], [-17.93, 63.64], [-17.97, 63.62], [-17.86, 63.61], [-17.96, 63.52], [-18.2, 63.47], [-18.23, 63.49], [-18.12, 63.53], [-18.32, 63.55], [-18.27, 63.47], [-18.18, 63.46], [-18.73, 63.4], [-19.29, 63.44], [-19.71, 63.52], [-19.74, 63.55], [-20.19, 63.54], [-20.34, 63.6], [-20.35, 63.61], [-20.29, 63.61], [-20.34, 63.62], [-20.33, 63.64], [-20.37, 63.62], [-20.41, 63.63], [-20.37, 63.63], [-20.48, 63.71], [-20.5, 63.7], [-20.43, 63.64], [-20.55, 63.71], [-20.56, 63.74], [-20.5, 63.76], [-20.31, 63.73], [-20.44, 63.79], [-20.41, 63.84], [-20.56, 63.76], [-20.58, 63.71], [-20.77, 63.77], [-20.61, 63.77], [-20.72, 63.78], [-20.68, 63.81], [-20.69, 63.86], [-20.72, 63.87], [-20.7, 63.84], [-20.75, 63.81], [-20.83, 63.8], [-20.82, 63.78], [-21.19, 63.89], [-21.19, 63.93], [-21.04, 63.95], [-21.24, 63.95], [-21.3, 63.92], [-21.21, 63.88], [-21.35, 63.88], [-21.37, 63.85], [-21.66, 63.83], [-21.79, 63.87], [-22.07, 63.84], [-22.34, 63.86], [-22.69, 63.81], [-22.73, 63.89], [-22.69, 63.95], [-22.63, 63.95], [-22.73, 63.97], [-22.7, 64.09], [-22.61, 64.06], [-22.52, 63.98], [-22.04, 64.05], [-21.96, 64.08], [-22.03, 64.11], [-21.92, 64.12], [-22.05, 64.16], [-21.8, 64.14], [-21.82, 64.17], [-21.72, 64.17], [-21.7, 64.19], [-21.76, 64.18], [-21.71, 64.21], [-21.81, 64.21], [-21.82, 64.24], [-21.93, 64.23], [-21.75, 64.35], [-21.6, 64.38], [-21.44, 64.36], [-21.41, 64.38], [-21.63, 64.4], [-21.96, 64.3], [-22.1, 64.32], [-21.86, 64.39], [-22.05, 64.41], [-21.98, 64.5], [-21.78, 64.54], [-21.82, 64.56], [-21.7, 64.61], [-21.58, 64.57], [-21.5, 64.57], [-21.62, 64.6], [-21.58, 64.62], [-21.68, 64.62], [-21.51, 64.65], [-21.7, 64.63], [-21.66, 64.67], [-21.85, 64.56], [-22.01, 64.53], [-22.04, 64.57], [-22.09, 64.48], [-22.16, 64.46], [-22.22, 64.5], [-22.26, 64.49], [-22.22, 64.55], [-22.26, 64.56], [-22.24, 64.58], [-22.34, 64.56], [-22.36, 64.58], [-22.35, 64.62], [-22.44, 64.67], [-22.37, 64.64], [-22.33, 64.69], [-22.22, 64.72], [-22.19, 64.74], [-22.4, 64.68], [-22.42, 64.69], [-22.32, 64.75], [-22.44, 64.77], [-22.41, 64.82], [-22.66, 64.77], [-22.68, 64.77], [-22.64, 64.78], [-22.67, 64.8], [-22.78, 64.8], [-22.71, 64.78], [-22.74, 64.77], [-23.25, 64.83], [-23.46, 64.79], [-23.57, 64.81], [-23.62, 64.79], [-23.67, 64.74], [-23.83, 64.73], [-23.95, 64.76], [-24.06, 64.89], [-23.85, 64.93], [-23.64, 64.9], [-23.51, 64.95], [-23.38, 64.95], [-23.4, 64.97], [-23.26, 64.93], [-23.22, 64.95], [-23.24, 65.0], [-23.17, 65.02], [-23.09, 65.01], [-23.16, 64.95], [-23.11, 64.92], [-23.11, 64.96], [-23.02, 65.01], [-22.94, 64.99], [-22.79, 65.03], [-22.87, 65.04], [-22.72, 65.08], [-22.7, 65.05], [-22.75, 65.03], [-22.69, 65.04], [-22.63, 65.01], [-22.55, 65.05], [-21.83, 65.04], [-21.8, 65.06], [-21.85, 65.07], [-21.78, 65.11], [-21.73, 65.19], [-21.81, 65.21], [-22.03, 65.11], [-22.56, 65.17], [-22.46, 65.18], [-22.55, 65.19], [-22.43, 65.27], [-21.7, 65.45], [-21.98, 65.44], [-21.94, 65.47], [-21.99, 65.51], [-22.06, 65.48], [-22.11, 65.53], [-22.13, 65.47], [-22.25, 65.43], [-22.39, 65.49], [-22.16, 65.54], [-22.11, 65.6], [-22.24, 65.54], [-22.35, 65.53], [-22.29, 65.56], [-22.31, 65.56], [-22.48, 65.51], [-22.55, 65.63], [-22.55, 65.56], [-22.59, 65.54], [-22.63, 65.57], [-22.66, 65.53], [-22.71, 65.57], [-22.68, 65.62], [-22.76, 65.63], [-22.73, 65.5], [-22.89, 65.54], [-22.8, 65.6], [-22.85, 65.62], [-22.91, 65.57], [-22.95, 65.61], [-22.99, 65.55], [-23.07, 65.54], [-23.18, 65.58], [-23.18, 65.51], [-23.23, 65.49], [-23.41, 65.51], [-23.9, 65.4], [-23.98, 65.42], [-23.99, 65.47], [-24.54, 65.51], [-24.38, 65.57], [-24.37, 65.62], [-24.3, 65.64], [-23.89, 65.52], [-23.81, 65.54], [-23.9, 65.54], [-24.09, 65.65], [-23.81, 65.61], [-24.08, 65.71], [-24.14, 65.79], [-24.09, 65.8], [-23.63, 65.71], [-23.57, 65.67], [-23.56, 65.61], [-23.29, 65.68], [-23.46, 65.68], [-23.54, 65.72], [-23.24, 65.74], [-23.22, 65.75], [-23.25, 65.76], [-23.19, 65.78], [-23.32, 65.76], [-23.73, 65.77], [-23.87, 65.88], [-23.86, 65.91], [-23.8, 65.93], [-23.6, 65.88], [-23.21, 65.84], [-23.58, 65.91], [-23.81, 66.01], [-23.81, 66.06], [-23.75, 66.08], [-23.43, 66.03], [-23.37, 65.99], [-23.42, 66.04], [-23.67, 66.12], [-23.48, 66.13], [-23.4, 66.1], [-23.48, 66.14], [-23.6, 66.14], [-23.46, 66.2], [-23.15, 66.15], [-23.11, 66.08], [-23.03, 66.11], [-22.98, 66.03], [-23.06, 65.97], [-22.93, 66.05], [-22.9, 66.01], [-22.84, 66.02], [-22.94, 65.95], [-22.88, 65.95], [-22.82, 66.0], [-22.82, 65.91], [-22.76, 66.05], [-22.68, 66.06], [-22.58, 65.97], [-22.65, 65.83], [-22.54, 65.97], [-22.46, 65.94], [-22.46, 65.91], [-22.42, 65.93], [-22.47, 65.84], [-22.36, 65.91], [-22.42, 66.0], [-22.48, 66.03], [-22.38, 66.1], [-22.49, 66.08], [-22.87, 66.16], [-22.98, 66.23], [-22.75, 66.26], [-22.55, 66.22], [-22.56, 66.25], [-22.37, 66.28], [-22.56, 66.28], [-22.47, 66.31], [-22.49, 66.32], [-22.71, 66.3], [-22.67, 66.36], [-22.68, 66.36], [-22.76, 66.32], [-22.82, 66.32], [-22.8, 66.36], [-22.83, 66.36], [-22.94, 66.3], [-23.19, 66.36], [-23.05, 66.36], [-23.02, 66.39], [-23.14, 66.43], [-23.1, 66.44], [-22.86, 66.43], [-22.95, 66.47], [-22.7, 66.42], [-22.57, 66.47], [-22.43, 66.43], [-22.46, 66.47], [-22.43, 66.46], [-22.35, 66.39], [-22.2, 66.34], [-22.23, 66.33], [-22.22, 66.27], [-21.98, 66.27], [-21.92, 66.24], [-21.99, 66.21], [-21.75, 66.19], [-21.72, 66.08], [-21.64, 66.07], [-21.64, 66.08], [-21.55, 66.1], [-21.51, 66.07], [-21.56, 66.05], [-21.53, 66.03], [-21.33, 66.01], [-21.32, 65.99], [-21.61, 65.96], [-21.41, 65.97], [-21.38, 65.96], [-21.44, 65.93], [-21.3, 65.94], [-21.28, 65.9], [-21.33, 65.88], [-21.28, 65.86], [-21.33, 65.81], [-21.48, 65.77], [-21.33, 65.74], [-21.44, 65.69], [-21.58, 65.69], [-21.69, 65.77], [-21.78, 65.77], [-21.67, 65.73], [-21.69, 65.69], [-21.63, 65.65], [-21.4, 65.62], [-21.48, 65.56], [-21.32, 65.6], [-21.3, 65.56], [-21.32, 65.52], [-21.48, 65.45], [-21.32, 65.48], [-21.21, 65.44], [-21.19, 65.31], [-21.09, 65.17], [-21.07, 65.19], [-21.12, 65.27], [-21.07, 65.32], [-21.1, 65.45], [-21.06, 65.45], [-20.96, 65.35], [-20.92, 65.34], [-20.99, 65.51], [-20.92, 65.6], [-20.68, 65.69], [-20.62, 65.67], [-20.64, 65.55], [-20.61, 65.59], [-20.58, 65.58], [-20.58, 65.54], [-20.48, 65.49], [-20.43, 65.55], [-20.53, 65.58], [-20.41, 65.6], [-20.39, 65.53], [-20.38, 65.6], [-20.32, 65.66], [-20.27, 65.67], [-20.31, 65.69], [-20.26, 65.74], [-20.34, 65.82], [-20.32, 65.87], [-20.45, 66.03], [-20.43, 66.08], [-20.18, 66.13], [-20.09, 66.13], [-19.88, 65.91], [-19.71, 65.87], [-19.63, 65.75], [-19.56, 65.73], [-19.51, 65.76], [-19.46, 65.73], [-19.42, 65.75], [-19.4, 65.84], [-19.45, 65.93], [-19.51, 65.96], [-19.41, 66.01], [-19.44, 66.07], [-19.23, 66.1], [-19.16, 66.08], [-19.14, 66.1], [-19.13, 66.09], [-19.06, 66.07], [-19.11, 66.11], [-19.07, 66.16], [-18.94, 66.19], [-18.91, 66.18], [-18.92, 66.15], [-18.85, 66.21], [-18.78, 66.19], [-18.8, 66.14], [-18.69, 66.17], [-18.62, 66.13], [-18.66, 66.09], [-18.54, 66.08], [-18.52, 66.03], [-18.54, 65.97], [-18.35, 65.95], [-18.22, 65.87], [-18.18, 65.73], [-18.09, 65.69], [-18.06, 65.65], [-18.06, 65.69], [-18.11, 65.73], [-18.07, 65.83], [-18.1, 65.9], [-18.22, 65.93], [-18.22, 65.97], [-18.3, 66.02], [-18.33, 66.1], [-18.3, 66.18], [-17.91, 66.15], [-17.89, 66.12], [-17.71, 66.06], [-17.55, 65.91], [-17.58, 65.97], [-17.5, 65.99], [-17.45, 66.0], [-17.41, 65.96], [-17.35, 66.1], [-17.15, 66.22], [-16.99, 66.2], [-16.92, 66.11], [-16.76, 66.15], [-16.72, 66.14], [-16.7, 66.14], [-16.6, 66.1], [-16.69, 66.17], [-16.53, 66.2], [-16.51, 66.2], [-16.62, 66.17], [-16.52, 66.18], [-16.43, 66.14], [-16.49, 66.19], [-16.42, 66.29], [-16.52, 66.37], [-16.53, 66.42], [-16.51, 66.43], [-16.57, 66.48], [-16.54, 66.51], [-16.5, 66.49], [-16.43, 66.52], [-16.42, 66.5], [-16.36, 66.52], [-16.31, 66.48], [-16.17, 66.54], [-16.02, 66.54], [-15.89, 66.49], [-15.93, 66.48], [-15.94, 66.42], [-15.71, 66.4], [-15.68, 66.34], [-15.78, 66.29], [-15.69, 66.27], [-15.7, 66.23], [-15.53, 66.23], [-15.38, 66.15], [-15.33, 66.2], [-15.33, 66.26], [-15.11, 66.28], [-14.93, 66.39], [-14.56, 66.38], [-15.01, 66.27], [-14.94, 66.21], [-15.18, 66.11]]]]}},
    {"type": "Feature", "properties": {"name": "Greenland: Eastern and Western Settlements (985-c. 1450)", "stroke": "#2a9d4b", "stroke-width": 0.8, "fill": "#2a9d4b", "fill-opacity": 0.35}, "geometry": {"type": "MultiPolygon", "coordinates": [[[[-45.35, 60.39], [-45.25, 60.36], [-45.18, 60.39], [-45.14, 60.36], [-45.18, 60.27], [-45.34, 60.2], [-45.41, 60.19], [-45.35, 60.39]]], [[[-45.12, 60.31], [-45.0, 60.39], [-44.97, 60.45], [-44.93, 60.44], [-45.06, 60.32], [-45.12, 60.31]]], [[[-45.13, 60.43], [-45.0, 60.45], [-45.04, 60.39], [-45.12, 60.39], [-45.13, 60.43]]], [[[-45.96, 60.68], [-45.78, 60.66], [-45.98, 60.62], [-45.96, 60.68]]], [[[-46.21, 60.68], [-46.18, 60.69], [-45.91, 60.7], [-45.99, 60.69], [-46.09, 60.64], [-46.21, 60.68]]], [[[-46.5, 60.7], [-46.39, 60.76], [-46.32, 60.78], [-46.25, 60.75], [-46.42, 60.72], [-46.35, 60.67], [-46.5, 60.7]]], [[[-47.87, 60.71], [-48.07, 60.7], [-48.13, 60.73], [-48.1, 60.75], [-48.17, 60.75], [-48.24, 60.8], [-48.18, 60.81], [-48.01, 60.82], [-47.97, 60.84], [-47.9, 60.8], [-47.76, 60.81], [-47.8, 60.78], [-47.77, 60.77], [-47.83, 60.76], [-47.81, 60.75], [-47.65, 60.76], [-47.91, 60.68], [-47.87, 60.71]]], [[[-46.85, 60.77], [-46.48, 60.89], [-46.2, 60.95], [-46.22, 60.94], [-46.16, 60.91], [-46.31, 60.85], [-46.4, 60.86], [-46.47, 60.81], [-46.81, 60.75], [-46.85, 60.77]]], [[[-46.43, 60.98], [-46.43, 60.94], [-46.52, 60.94], [-46.53, 60.99], [-46.43, 60.98]]], [[[-48.04, 61.07], [-48.28, 61.05], [-48.37, 61.08], [-48.04, 61.07]]], [[[-51.34, 64.26], [-51.22, 64.26], [-51.26, 64.28], [-51.16, 64.3], [-51.21, 64.34], [-51.14, 64.38], [-51.18, 64.4], [-51.09, 64.44], [-51.03, 64.55], [-50.87, 64.56], [-50.81, 64.53], [-50.82, 64.49], [-50.96, 64.43], [-51.13, 64.31], [-51.14, 64.26], [-51.26, 64.22], [-51.34, 64.26]]], [[[-51.34, 64.45], [-51.35, 64.48], [-51.26, 64.56], [-51.09, 64.57], [-51.17, 64.51], [-51.18, 64.46], [-51.3, 64.38], [-51.5, 64.38], [-51.34, 64.45]]], [[[-44.57, 60.0], [-44.65, 60.0], [-44.67, 60.11], [-44.71, 60.07], [-44.71, 60.01], [-44.77, 60.0], [-44.89, 60.11], [-44.84, 60.15], [-44.87, 60.15], [-44.93, 60.1], [-44.84, 60.02], [-44.97, 60.04], [-44.95, 60.07], [-44.97, 60.08], [-45.02, 60.11], [-45.12, 60.1], [-45.09, 60.08], [-45.11, 60.07], [-45.17, 60.09], [-45.07, 60.14], [-45.08, 60.16], [-44.76, 60.2], [-44.84, 60.22], [-44.5, 60.49], [-44.5, 60.06], [-44.57, 60.0]]], [[[-44.86, 60.28], [-44.9, 60.21], [-45.08, 60.2], [-45.17, 60.13], [-45.21, 60.14], [-45.16, 60.18], [-45.21, 60.18], [-45.19, 60.21], [-45.09, 60.28], [-44.93, 60.33], [-44.94, 60.36], [-44.84, 60.48], [-44.95, 60.47], [-44.78, 60.58], [-44.77, 60.66], [-44.63, 60.74], [-44.8, 60.68], [-44.86, 60.59], [-45.0, 60.49], [-45.21, 60.44], [-45.28, 60.46], [-45.25, 60.48], [-45.26, 60.5], [-45.06, 60.66], [-45.17, 60.62], [-45.22, 60.63], [-45.23, 60.57], [-45.27, 60.59], [-45.29, 60.55], [-45.5, 60.49], [-45.4, 60.55], [-45.37, 60.61], [-45.17, 60.68], [-45.12, 60.73], [-45.31, 60.68], [-45.32, 60.73], [-45.35, 60.73], [-45.37, 60.65], [-45.46, 60.63], [-45.48, 60.57], [-45.51, 60.58], [-45.58, 60.47], [-45.61, 60.52], [-45.59, 60.54], [-45.67, 60.53], [-45.6, 60.59], [-45.63, 60.6], [-45.63, 60.58], [-45.69, 60.57], [-45.73, 60.59], [-45.62, 60.65], [-45.79, 60.62], [-45.8, 60.55], [-45.85, 60.57], [-45.87, 60.52], [-45.91, 60.57], [-45.98, 60.58], [-45.58, 60.7], [-45.71, 60.68], [-45.86, 60.7], [-45.58, 60.77], [-45.63, 60.78], [-45.38, 60.9], [-45.26, 60.91], [-45.3, 60.94], [-45.36, 60.93], [-45.33, 60.98], [-45.4, 61.01], [-45.42, 61.0], [-45.39, 60.96], [-45.71, 60.77], [-45.87, 60.76], [-45.9, 60.77], [-45.76, 60.83], [-45.87, 60.85], [-45.98, 60.82], [-46.02, 60.73], [-46.21, 60.75], [-46.21, 60.78], [-46.06, 60.8], [-45.85, 60.9], [-45.99, 60.88], [-46.09, 60.82], [-46.19, 60.81], [-46.17, 60.83], [-45.89, 60.93], [-45.51, 60.98], [-45.43, 61.05], [-45.26, 61.1], [-45.26, 61.15], [-45.2, 61.19], [-45.25, 61.19], [-45.36, 61.09], [-45.51, 61.25], [-45.52, 61.17], [-45.48, 61.11], [-45.62, 61.02], [-45.79, 60.96], [-45.84, 60.97], [-46.03, 60.91], [-46.07, 60.94], [-46.04, 60.94], [-46.09, 60.98], [-45.7, 61.07], [-45.68, 61.09], [-45.78, 61.1], [-45.7, 61.12], [-45.73, 61.14], [-45.62, 61.14], [-45.69, 61.17], [-45.77, 61.15], [-45.79, 61.19], [-45.87, 61.22], [-45.71, 61.33], [-45.82, 61.33], [-45.94, 61.23], [-46.11, 61.25], [-45.86, 61.18], [-45.84, 61.15], [-45.95, 61.14], [-45.91, 61.09], [-46.03, 61.05], [-46.14, 61.05], [-46.18, 61.09], [-46.3, 61.07], [-46.12, 61.02], [-46.16, 61.0], [-46.24, 60.98], [-46.27, 61.05], [-46.41, 61.09], [-46.38, 61.05], [-46.46, 61.05], [-46.41, 61.01], [-46.58, 61.01], [-46.54, 60.95], [-46.65, 60.99], [-46.58, 60.91], [-46.63, 60.94], [-46.65, 60.9], [-46.75, 60.95], [-46.7, 60.91], [-46.89, 60.94], [-46.71, 60.89], [-46.72, 60.86], [-46.86, 60.8], [-46.94, 60.8], [-46.89, 60.83], [-46.98, 60.82], [-46.85, 60.88], [-47.04, 60.84], [-47.04, 60.88], [-46.91, 60.93], [-46.94, 60.96], [-47.08, 60.94], [-47.0, 60.96], [-47.03, 60.97], [-47.25, 60.9], [-47.3, 60.96], [-47.55, 60.91], [-47.5, 60.9], [-47.53, 60.89], [-47.48, 60.9], [-47.32, 60.86], [-47.44, 60.83], [-47.93, 60.84], [-47.91, 60.88], [-47.94, 60.88], [-48.04, 60.83], [-48.18, 60.81], [-48.24, 60.83], [-47.69, 61.01], [-47.91, 61.02], [-48.16, 60.96], [-48.21, 60.99], [-48.4, 61.0], [-48.12, 61.01], [-48.02, 61.05], [-47.85, 61.04], [-47.83, 61.05], [-47.86, 61.08], [-47.91, 61.06], [-47.93, 61.09], [-47.89, 61.12], [-48.09, 61.09], [-48.12, 61.11], [-48.05, 61.18], [-48.14, 61.13], [-48.21, 61.18], [-48.2, 61.21], [-48.11, 61.24], [-48.13, 61.28], [-47.91, 61.33], [-47.96, 61.34], [-48.17, 61.31], [-48.18, 61.26], [-48.26, 61.23], [-48.29, 61.18], [-48.22, 61.14], [-48.41, 61.13], [-48.44, 61.16], [-48.3, 61.18], [-48.33, 61.19], [-48.3, 61.23], [-48.48, 61.18], [-48.5, 61.29], [-48.38, 61.31], [-48.5, 61.32], [-48.49, 61.35], [-48.35, 61.35], [-48.33, 61.37], [-48.5, 61.38], [-48.5, 61.4], [-47.78, 61.4], [-47.76, 61.34], [-47.65, 61.28], [-47.63, 61.15], [-47.55, 61.07], [-47.31, 61.11], [-47.21, 61.08], [-47.04, 61.12], [-46.87, 61.09], [-46.75, 61.1], [-46.46, 61.23], [-46.26, 61.24], [-46.23, 61.34], [-46.14, 61.4], [-45.49, 61.4], [-45.34, 61.31], [-45.25, 61.36], [-45.18, 61.36], [-45.1, 61.31], [-45.05, 61.21], [-45.07, 61.13], [-45.14, 61.01], [-45.11, 60.87], [-45.04, 60.85], [-44.94, 60.75], [-44.76, 60.87], [-44.63, 60.89], [-44.54, 60.86], [-44.5, 60.82], [-44.5, 60.53], [-44.86, 60.28]]], [[[-50.92, 63.94], [-51.13, 63.9], [-51.38, 63.9], [-51.44, 63.95], [-51.36, 63.97], [-51.5, 63.97], [-51.5, 64.04], [-51.33, 64.01], [-51.31, 64.02], [-51.39, 64.05], [-50.88, 64.1], [-50.65, 64.17], [-50.43, 64.14], [-50.21, 64.21], [-50.11, 64.19], [-50.07, 64.1], [-50.05, 64.11], [-50.08, 64.15], [-50.05, 64.2], [-50.16, 64.24], [-50.55, 64.18], [-50.33, 64.35], [-50.36, 64.36], [-50.6, 64.24], [-50.81, 64.18], [-51.44, 64.08], [-51.5, 64.1], [-51.5, 64.17], [-51.35, 64.14], [-51.5, 64.22], [-51.27, 64.18], [-51.07, 64.24], [-50.95, 64.22], [-50.85, 64.25], [-51.05, 64.28], [-50.96, 64.32], [-50.96, 64.37], [-50.89, 64.41], [-50.76, 64.43], [-50.72, 64.4], [-50.58, 64.38], [-50.69, 64.41], [-50.7, 64.45], [-50.34, 64.39], [-50.18, 64.45], [-50.23, 64.48], [-50.39, 64.42], [-50.62, 64.47], [-50.65, 64.49], [-50.49, 64.53], [-50.44, 64.56], [-50.64, 64.52], [-50.69, 64.55], [-50.63, 64.59], [-50.92, 64.6], [-50.84, 64.65], [-50.61, 64.63], [-50.45, 64.67], [-50.66, 64.69], [-50.48, 64.71], [-50.34, 64.68], [-50.28, 64.65], [-50.15, 64.49], [-49.71, 64.35], [-49.59, 64.34], [-49.68, 64.39], [-49.68, 64.42], [-49.82, 64.44], [-50.06, 64.53], [-50.12, 64.64], [-50.0, 64.7], [-50.22, 64.73], [-50.01, 64.87], [-50.2, 64.83], [-50.31, 64.75], [-50.56, 64.77], [-50.67, 64.9], [-49.85, 64.9], [-49.86, 64.63], [-49.63, 64.56], [-49.5, 64.47], [-49.5, 64.22], [-49.66, 64.19], [-49.91, 64.26], [-49.91, 64.05], [-50.01, 63.96], [-50.13, 63.96], [-50.22, 64.05], [-50.43, 63.99], [-50.65, 64.02], [-50.78, 63.97], [-50.78, 63.9], [-51.02, 63.9], [-50.92, 63.94]]], [[[-50.77, 64.87], [-50.67, 64.85], [-50.66, 64.82], [-50.71, 64.79], [-50.64, 64.76], [-50.73, 64.77], [-50.91, 64.69], [-51.08, 64.65], [-51.01, 64.63], [-51.15, 64.62], [-51.22, 64.62], [-51.17, 64.71], [-51.09, 64.76], [-51.03, 64.76], [-51.04, 64.78], [-51.13, 64.79], [-51.25, 64.76], [-51.33, 64.65], [-51.41, 64.62], [-51.44, 64.53], [-51.5, 64.48], [-51.49, 64.9], [-50.72, 64.89], [-50.77, 64.87]]]]}},
    {"type": "Feature", "properties": {"name": "Normandy (911-933)", "stroke": "#2a9d4b", "stroke-width": 0.8, "fill": "#2a9d4b", "fill-opacity": 0.35}, "geometry": {"type": "MultiPolygon", "coordinates": [[[[-2.14, 49.21], [-2.17, 49.18], [-2.23, 49.18], [-2.24, 49.26], [-2.02, 49.24], [-2.04, 49.18], [-2.14, 49.21]]], [[[-2.67, 49.43], [-2.5, 49.51], [-2.56, 49.43], [-2.67, 49.43]]], [[[-1.36, 48.64], [-1.44, 48.66], [-1.55, 48.75], [-1.57, 48.82], [-1.6, 48.85], [-1.54, 48.94], [-1.55, 49.03], [-1.59, 49.03], [-1.61, 49.1], [-1.57, 49.14], [-1.61, 49.22], [-1.62, 49.22], [-1.7, 49.31], [-1.7, 49.36], [-1.71, 49.34], [-1.82, 49.38], [-1.82, 49.45], [-1.88, 49.53], [-1.84, 49.62], [-1.87, 49.66], [-1.95, 49.68], [-1.94, 49.72], [-1.61, 49.65], [-1.41, 49.71], [-1.26, 49.7], [-1.23, 49.62], [-1.31, 49.56], [-1.18, 49.42], [-1.18, 49.36], [-1.1, 49.35], [-1.07, 49.4], [-0.94, 49.39], [-0.41, 49.34], [-0.22, 49.28], [0.01, 49.33], [0.16, 49.42], [0.41, 49.45], [0.49, 49.49], [0.34, 49.46], [0.08, 49.52], [0.17, 49.69], [0.24, 49.73], [0.6, 49.86], [1.17, 49.96], [1.38, 50.07], [1.6, 49.85], [1.72, 49.55], [1.7, 49.25], [1.35, 48.75], [0.9, 48.65], [0.4, 48.45], [0.0, 48.4], [-0.5, 48.48], [-1.05, 48.5], [-1.69, 48.62], [-1.36, 48.64]]]]}},
    {"type": "Feature", "properties": {"name": "Kievan Rus' (c. 1000-1054)", "stroke": "#2a9d4b", "stroke-width": 0.8, "fill": "#2a9d4b", "fill-opacity": 0.35}, "geometry": {"type": "MultiPolygon", "coordinates": [[[[28.07, 59.58], [28.0, 59.7], [28.16, 59.77], [28.22, 59.69], [28.38, 59.67], [28.42, 59.71], [28.43, 59.81], [28.48, 59.85], [28.54, 59.86], [28.72, 59.79], [28.83, 59.79], [28.98, 59.83], [29.03, 59.89], [28.98, 59.93], [29.12, 59.99], [30.19, 59.88], [30.23, 59.99], [29.95, 60.03], [29.89, 60.1], [29.9, 60.13], [29.85, 60.17], [29.7, 60.2], [29.42, 60.17], [29.07, 60.18], [30.0, 60.6], [33.0, 61.3], [36.5, 61.6], [38.5, 60.5], [40.5, 58.0], [42.5, 56.5], [42.0, 55.3], [40.0, 54.3], [37.5, 53.5], [36.0, 52.5], [35.0, 50.5], [33.0, 49.4], [30.5, 49.6], [28.0, 49.3], [24.0, 49.3], [22.8, 49.8], [23.3, 50.8], [23.8, 52.2], [26.0, 53.5], [27.0, 55.0], [27.5, 56.5], [27.6, 57.8], [27.95, 59.43], [28.07, 59.58]]]]}},
    {"type": "Feature", "properties": {"name": "Norman Kingdom of Sicily (1130)", "stroke": "#1d6fa5", "stroke-width": 0.8, "fill": "#1d6fa5", "fill-opacity": 0.35}, "geometry": {"type": "MultiPolygon", "coordinates": [[[[15.21, 37.76], [15.22, 37.71], [15.16, 37.57], [15.09, 37.48], [15.1, 37.33], [15.25, 37.26], [15.26, 37.23], [15.22, 37.22], [15.21, 37.24], [15.18, 37.21], [15.22, 37.16], [15.25, 37.16], [15.25, 37.12], [15.3, 37.1], [15.28, 37.05], [15.33, 37.01], [15.16, 36.92], [15.09, 36.8], [15.13, 36.68], [15.09, 36.65], [15.01, 36.7], [14.88, 36.73], [14.78, 36.7], [14.49, 36.79], [14.39, 36.95], [14.28, 37.04], [14.13, 37.11], [13.89, 37.1], [13.72, 37.17], [13.57, 37.27], [13.45, 37.3], [13.28, 37.39], [13.17, 37.49], [13.03, 37.49], [12.94, 37.57], [12.66, 37.57], [12.58, 37.65], [12.51, 37.67], [12.43, 37.8], [12.47, 37.82], [12.49, 38.02], [12.61, 38.06], [12.66, 38.12], [12.7, 38.11], [12.73, 38.19], [12.82, 38.08], [12.9, 38.03], [13.06, 38.08], [13.05, 38.14], [13.1, 38.19], [13.21, 38.18], [13.32, 38.22], [13.37, 38.17], [13.39, 38.1], [13.51, 38.11], [13.55, 38.06], [13.65, 38.0], [13.79, 37.97], [14.02, 38.05], [14.27, 38.02], [14.51, 38.04], [14.63, 38.08], [14.73, 38.16], [14.91, 38.19], [15.09, 38.13], [15.18, 38.16], [15.24, 38.26], [15.25, 38.22], [15.29, 38.21], [15.53, 38.3], [15.65, 38.28], [15.57, 38.23], [15.53, 38.14], [15.21, 37.76]]], [[[14.08, 42.6], [14.22, 42.47], [14.56, 42.23], [14.71, 42.18], [14.74, 42.08], [14.84, 42.04], [14.99, 42.01], [15.17, 41.93], [15.45, 41.91], [16.03, 41.94], [16.18, 41.89], [16.18, 41.78], [15.9, 41.61], [15.9, 41.54], [15.93, 41.48], [16.59, 41.21], [17.06, 41.08], [17.28, 40.98], [17.48, 40.83], [17.96, 40.67], [17.95, 40.65], [18.01, 40.65], [18.04, 40.56], [18.24, 40.46], [18.44, 40.27], [18.52, 40.14], [18.41, 39.98], [18.39, 39.82], [18.34, 39.8], [18.07, 39.91], [18.0, 40.0], [18.02, 40.04], [17.97, 40.06], [18.01, 40.1], [17.93, 40.18], [17.91, 40.26], [17.86, 40.29], [17.51, 40.3], [17.2, 40.42], [17.24, 40.44], [17.23, 40.47], [17.32, 40.5], [17.19, 40.48], [17.16, 40.51], [17.05, 40.52], [16.98, 40.49], [16.6, 40.08], [16.63, 39.97], [16.54, 39.89], [16.49, 39.78], [16.55, 39.66], [16.78, 39.61], [16.85, 39.55], [17.16, 39.41], [17.11, 39.27], [17.15, 39.21], [17.12, 39.09], [17.21, 39.03], [17.17, 38.96], [17.1, 38.9], [16.96, 38.94], [16.84, 38.92], [16.59, 38.8], [16.53, 38.7], [16.57, 38.43], [16.31, 38.28], [16.17, 38.14], [16.08, 37.94], [15.76, 37.93], [15.68, 37.95], [15.64, 38.01], [15.66, 38.04], [15.62, 38.09], [15.65, 38.14], [15.63, 38.22], [15.81, 38.3], [15.92, 38.52], [15.84, 38.65], [16.0, 38.73], [16.15, 38.73], [16.2, 38.78], [16.22, 38.86], [16.21, 38.92], [16.15, 38.96], [16.08, 39.08], [16.0, 39.44], [15.88, 39.55], [15.81, 39.7], [15.78, 39.87], [15.73, 39.96], [15.62, 40.08], [15.53, 40.08], [15.41, 39.99], [15.26, 40.03], [15.26, 40.07], [15.13, 40.17], [15.05, 40.17], [14.91, 40.24], [14.93, 40.33], [14.99, 40.36], [15.0, 40.4], [14.89, 40.57], [14.78, 40.67], [14.54, 40.61], [14.49, 40.63], [14.34, 40.57], [14.34, 40.62], [14.48, 40.7], [14.47, 40.73], [14.29, 40.84], [14.22, 40.83], [14.2, 40.8], [14.08, 40.83], [14.08, 40.78], [14.05, 40.79], [14.02, 40.92], [13.92, 41.02], [13.85, 41.15], [13.72, 41.25], [13.59, 41.25], [13.56, 41.24], [13.58, 41.21], [13.54, 41.21], [13.29, 41.3], [13.1, 41.24], [13.5, 41.55], [13.6, 41.75], [13.3, 42.2], [13.4, 42.6], [13.91, 42.89], [14.08, 42.6]]]]}},
    {"type": "Feature", "properties": {"name": "Normans to southern Italy and Sicily (1017-1091)", "stroke": "#1d6fa5", "stroke-width": 2}, "geometry": {"type": "LineString", "coordinates": [[1.09, 49.44], [2.35, 48.86], [4.07, 48.3], [6.02, 47.24], [6.63, 46.52], [7.17, 45.87], [7.32, 45.74], [9.16, 45.19], [9.69, 45.05], [9.88, 44.38], [10.5, 43.84], [11.33, 43.32], [12.1, 42.42], [12.48, 41.9], [13.3, 41.45], [14.21, 41.08], [14.21, 40.97], [14.78, 41.13], [15.65, 40.99], [16.0, 40.0], [16.25, 39.3], [16.15, 38.7], [15.65, 38.11], [15.6, 38.2], [15.55, 38.19], [15.62, 38.3], [15.3, 38.35], [14.5, 38.2], [13.6, 38.25], [13.36, 38.12]]}}
  ]
}
