{
  "type": "FeatureCollection",
  "features": [
    {
      "type": "Feature",
      "properties": {"name": "Lindisfarne (793)", "legend": "Raids", "stroke": "#e63946", "stroke-width": 2},
      "geometry": {
        "type": "LineString",
        "coordinates": [[5.32, 60.39], [4.6, 60.3], [-1.75, 55.68]]
      }
    },
    {
      "type": "Feature",
      "properties": {"name": "Northern Isles - Hebrides - Iona - Dublin (795-841)", "legend": "Raids", "stroke": "#e63946", "stroke-width": 2},
      "geometry": {
        "type": "LineString",
        "coordinates": [
          [5.32, 60.39], [4.6, 60.3], [-0.7, 60.0], [-1.0, 59.75], [-1.45, 59.7],
          [-3.3, 59.45], [-3.6, 59.1], [-4.5, 58.85], [-5.1, 58.7], [-5.75, 58.3],
          [-6.45, 57.85], [-6.95, 57.45], [-7.1, 57.0], [-7.2, 56.7], [-7.1, 56.35],
          [-6.42, 56.33], [-6.5, 56.1], [-6.7, 55.7], [-5.95, 55.35], [-5.5, 54.9],
          [-5.3, 54.3], [-6.0, 53.4], [-6.0, 53.33], [-6.26, 53.35]
        ]
      }
    },
    {
      "type": "Feature",
      "properties": {"name": "Siege of Paris (845)", "legend": "Raids", "stroke": "#e63946", "stroke-width": 2},
      "geometry": {
        "type": "LineString",
        "coordinates": [
          [8.76, 55.33], [8.5, 55.25], [7.9, 54.8], [7.0, 54.0], [6.0, 53.65],
          [4.9, 53.4], [4.6, 53.2], [4.3, 52.5], [3.3, 51.75], [2.0, 51.15],
          [1.5, 51.0], [0.5, 50.4], [-0.05, 49.7], [0.12, 49.46], [0.45, 49.43],
          [1.09, 49.44], [1.41, 49.24], [1.48, 49.09], [1.72, 48.99], [2.04, 48.93],
          [2.35, 48.86]
        ]
      }
    },
    {
      "type": "Feature",
      "properties": {"name": "Iberia and the Mediterranean (844, 859-861)", "legend": "Raids", "stroke": "#e63946", "stroke-width": 2},
      "geometry": {
        "type": "MultiLineString",
        "coordinates": [
          [
            [-1.55, 47.22], [-2.2, 47.27], [-2.6, 47.15], [-4.0, 46.0], [-8.0, 44.1],
            [-9.6, 43.3], [-9.6, 42.0], [-9.6, 38.7], [-9.2, 36.9], [-8.0, 36.85],
            [-6.42, 36.8], [-6.15, 37.0], [-5.98, 37.39]
          ],
          [
            [-6.42, 36.8], [-6.55, 36.7], [-6.4, 36.5], [-6.1, 36.15], [-5.6, 35.95], [-5.0, 36.0],
            [-3.93, 35.25], [-2.0, 36.0], [-1.0, 37.3], [1.0, 38.6], [2.5, 39.25],
            [3.3, 39.2], [4.5, 39.6], [4.6, 43.25], [4.84, 43.33], [4.63, 43.68],
            [4.81, 43.95], [4.75, 44.56], [4.89, 44.93]
          ],
          [
            [4.84, 43.33], [6.0, 42.9], [7.5, 43.4], [8.5, 43.8], [9.9, 44.0],
            [10.02, 44.06], [10.0, 43.9], [10.25, 43.68], [10.4, 43.72]
          ]
        ]
      }
    },
    {
      "type": "Feature",
      "properties": {"name": "Great Heathen Army lands in East Anglia (865)", "legend": "Raids", "stroke": "#e63946", "stroke-width": 2},
      "geometry": {
        "type": "LineString",
        "coordinates": [
          [8.76, 55.33], [8.5, 55.25], [6.0, 54.5], [2.0, 52.8], [1.75, 52.6],
          [1.3, 52.63], [0.75, 52.41]
        ]
      }
    },
    {
      "type": "Feature",
      "properties": {"name": "Rus' Caspian expedition (913)", "legend": "Raids", "stroke": "#e63946", "stroke-width": 2},
      "geometry": {
        "type": "LineString",
        "coordinates": [
          [31.42, 46.6], [31.6, 45.9], [32.4, 45.2], [33.0, 44.6], [33.5, 44.35],
          [33.9, 44.3], [34.5, 44.45],
          [35.5, 44.9], [36.5, 44.95], [36.6, 45.25], [36.65, 45.45], [37.2, 46.0],
          [37.9, 46.8], [38.6, 47.05], [39.25, 47.15], [39.7, 47.23], [42.12, 47.7], [43.5, 48.69],
          [44.5, 48.7], [45.9, 48.1], [47.25, 47.25], [48.03, 46.35], [48.7, 45.7],
          [49.5, 43.5], [50.6, 40.6], [50.4, 40.0], [49.7, 37.7], [51.5, 36.85],
          [53.9, 36.95]
        ]
      }
    }
  ]
}
