{
  "type": "FeatureCollection",
  "features": [
    {
      "type": "Feature",
      "properties": {"name": "Norway - Faroes - Iceland - Greenland (c. 860-985)", "stroke": "#7b2cbf", "stroke-width": 2},
      "geometry": {
        "type": "LineString",
        "coordinates": [
          [5.32, 60.39], [4.6, 60.5], [-0.8, 61.0], [-6.3, 61.9], [-6.4, 61.4], [-7.0, 61.3],
          [-8.0, 62.0], [-14.5, 63.9], [-16.6, 63.65], [-19.0, 63.3], [-21.0, 63.7],
          [-22.75, 63.75], [-23.0, 64.05], [-22.6, 64.1], [-21.95, 64.15], [-22.6, 64.1],
          [-24.5, 64.4], [-36.0, 64.5], [-40.0, 62.5], [-41.8, 60.8], [-43.8, 59.55], [-45.5, 60.0],
          [-46.4, 60.75], [-45.53, 61.13]
        ]
      }
    },
    {
      "type": "Feature",
      "properties": {"name": "Leif Erikson: Helluland - Markland - Vinland (c. 1000)", "stroke": "#7b2cbf", "stroke-width": 2},
      "geometry": {
        "type": "LineString",
        "coordinates": [
          [-45.53, 61.13], [-46.4, 60.75], [-46.6, 60.65], [-47.6, 60.4], [-49.3, 61.2], [-52.5, 64.0], [-61.5, 63.5],
          [-60.0, 57.5], [-55.3, 53.0], [-55.1, 52.0], [-55.53, 51.6]
        ]
      }
    },
    {
      "type": "Feature",
      "properties": {"name": "Ohthere's voyage to the White Sea (c. 890)", "stroke": "#7b2cbf", "stroke-width": 2},
      "geometry": {
        "type": "LineString",
        "coordinates": [
          [18.0, 69.3], [19.0, 70.2], [25.8, 71.4], [31.0, 70.6], [35.0, 69.8],
          [40.5, 68.4], [41.5, 67.3], [41.6, 66.8], [40.8, 66.3], [39.6, 65.9],
          [39.4, 65.2], [39.6, 64.8], [40.5, 64.55]
        ]
      }
    }
  ]
}
